{"type": "Feature", "properties": {"source": "OpenStreetMap / Nominatim", "query": "郑州航空港经济综合实验区", "display_name": "郑州航空港经济综合实验区, 中牟县, 郑州市, 河南省, 450019, 中国"}, "geometry": {"type": "Polygon", "coordinates": [[[113.7880889, 34.4480691], [113.7881642, 34.4480842], [113.788288, 34.4481167], [113.7883776, 34.4481442], [113.7884055, 34.4480676], [113.7884579, 34.4479719], [113.7886076, 34.4477961], [113.7886582, 34.447709], [113.7888486, 34.4472421], [113.7889076, 34.4471411], [113.7889641, 34.4470733], [113.7890307, 34.4469992], [113.7890935, 34.4469691], [113.7891704, 34.4469543], [113.7895451, 34.4469479], [113.7896247, 34.4469425], [113.7896779, 34.4469179], [113.7897292, 34.4468813], [113.7897699, 34.4468383], [113.7898008, 34.4467978], [113.789815, 34.4467651], [113.789816, 34.4467218], [113.7898074, 34.4466941], [113.7897518, 34.4465931], [113.7897289, 34.4465517], [113.7896958, 34.4463846], [113.7896763, 34.4462252], [113.7896515, 34.445876], [113.7896445, 34.4457163], [113.7897399, 34.4456395], [113.7899265, 34.4454892], [113.7900683, 34.4452865], [113.7901228, 34.4448603], [113.7902402, 34.4444862], [113.7903523, 34.4444573], [113.7907085, 34.444436], [113.7912999, 34.444442], [113.7914269, 34.4442861], [113.7914699, 34.4439036], [113.7915289, 34.4436176], [113.7915779, 34.4435287], [113.791763, 34.4434271], [113.7918674, 34.4432314], [113.7919353, 34.4431507], [113.7919649, 34.4431154], [113.7920679, 34.4431166], [113.7922391, 34.4431186], [113.7922438, 34.44321], [113.792279, 34.443881], [113.7931573, 34.4438478], [113.7931952, 34.4443983], [113.7938185, 34.4443815], [113.7937503, 34.4435066], [113.7937249, 34.4431799], [113.7940555, 34.4431706], [113.7939479, 34.441897], [113.7940094, 34.4420926], [113.7940397, 34.4421113], [113.7940835, 34.4421177], [113.7947541, 34.4420474], [113.7949176, 34.4420302], [113.7949756, 34.4420241], [113.7950985, 34.4431266], [113.7951267, 34.4433797], [113.7958556, 34.4433202], [113.7958347, 34.4431238], [113.7957818, 34.4426259], [113.7962151, 34.4425918], [113.7975236, 34.4424889], [113.798391, 34.4423882], [113.8001232, 34.4421585], [113.7997206, 34.4401799], [113.8011759, 34.4399658], [113.8022012, 34.4398766], [113.8024403, 34.4398519], [113.8025902, 34.4406293], [113.8032737, 34.4405842], [113.803495, 34.4418071], [113.8042737, 34.4417076], [113.8045927, 34.4416668], [113.8047908, 34.4416414], [113.8048619, 34.4420172], [113.8050702, 34.4432958], [113.8055144, 34.4432644], [113.8077897, 34.4429703], [113.8077479, 34.4419701], [113.8077215, 34.4413586], [113.8093819, 34.4420291], [113.8097257, 34.4420753], [113.8097215, 34.439078], [113.809717, 34.4386457], [113.8096922, 34.4373678], [113.8116552, 34.4373252], [113.8116141, 34.4366051], [113.811642, 34.4366013], [113.8115903, 34.4355484], [113.8119741, 34.4355401], [113.8119699, 34.4355382], [113.8119377, 34.4355067], [113.8119129, 34.4354734], [113.8118905, 34.4354187], [113.8118762, 34.4353074], [113.8118712, 34.4350191], [113.811888, 34.4344451], [113.8118234, 34.4341355], [113.8118207, 34.4341336], [113.8118983, 34.4338588], [113.8120749, 34.4338325], [113.8119605, 34.4325502], [113.8118266, 34.4325591], [113.8117183, 34.4313096], [113.8118954, 34.4313061], [113.8118527, 34.4310858], [113.8119707, 34.4310507], [113.8118017, 34.4299136], [113.8118732, 34.4299134], [113.8117034, 34.42875], [113.8114298, 34.4287686], [113.8110537, 34.4287941], [113.8111341, 34.4294404], [113.8094568, 34.42958], [113.8086207, 34.4296496], [113.808196, 34.4252393], [113.8078113, 34.4252744], [113.8072444, 34.425196], [113.8066698, 34.4252029], [113.8066706, 34.4252235], [113.8067371, 34.4269026], [113.8066578, 34.4269822], [113.806475, 34.4271193], [113.8061896, 34.4273096], [113.8060402, 34.4273831], [113.8059502, 34.4274193], [113.805861, 34.427452], [113.8057425, 34.4260382], [113.8054172, 34.4260607], [113.8053858, 34.426541], [113.8053219, 34.4262542], [113.8052431, 34.4249818], [113.8050856, 34.4249966], [113.8045538, 34.4257484], [113.8043462, 34.4257941], [113.8044482, 34.4270072], [113.8037251, 34.4270673], [113.8037006, 34.4268828], [113.8035466, 34.4268894], [113.8035357, 34.4268217], [113.8029191, 34.4268544], [113.8028563, 34.4262356], [113.8012148, 34.4263623], [113.8011143, 34.4256826], [113.8010193, 34.4250401], [113.8010529, 34.425038], [113.801011, 34.4236677], [113.8006446, 34.4236559], [113.8006822, 34.4250783], [113.8006253, 34.4250731], [113.8006072, 34.4249214], [113.8005315, 34.4249261], [113.800511, 34.4246367], [113.7999593, 34.4246715], [113.8000096, 34.4225538], [113.7999488, 34.4207767], [113.7981103, 34.420852], [113.7979821, 34.4191346], [113.7981941, 34.4191131], [113.7980948, 34.4176324], [113.8007594, 34.417466], [113.8006903, 34.4166728], [113.8011333, 34.4166144], [113.8011998, 34.4172425], [113.8017747, 34.4172201], [113.8017964, 34.4174025], [113.8022235, 34.4174062], [113.8022532, 34.417521], [113.8032885, 34.4174598], [113.8030156, 34.4163451], [113.8016036, 34.4102976], [113.8002545, 34.4044488], [113.7993801, 34.3999829], [113.7989193, 34.3968416], [113.7988294, 34.3953058], [113.7986978, 34.3935673], [113.7985973, 34.3915384], [113.8040925, 34.3913686], [113.8041293, 34.3916988], [113.8043033, 34.3916892], [113.804258, 34.3913589], [113.804651, 34.3913015], [113.8046437, 34.3912145], [113.8044025, 34.3911928], [113.8044048, 34.3908331], [113.8045383, 34.3908341], [113.8044683, 34.3891592], [113.8049137, 34.3890823], [113.8049122, 34.3890575], [113.8048583, 34.3881944], [113.8048546, 34.3881343], [113.8046119, 34.3842454], [113.8030933, 34.3843273], [113.802966, 34.3824634], [113.8015807, 34.382541], [113.8016226, 34.3817632], [113.8039629, 34.3816974], [113.8038787, 34.3807109], [113.8057815, 34.3805386], [113.8057474, 34.3799585], [113.8083255, 34.3798741], [113.8083106, 34.3790954], [113.8082571, 34.3762956], [113.8118288, 34.3763404], [113.8118548, 34.3776703], [113.8124, 34.377654], [113.8122601, 34.3763436], [113.8121986, 34.3763464], [113.8120718, 34.3748877], [113.811959, 34.3748892], [113.8117544, 34.3732911], [113.8121657, 34.3732525], [113.8121286, 34.3729947], [113.8125318, 34.3728099], [113.8120546, 34.3689702], [113.8124508, 34.3687104], [113.8121764, 34.3667007], [113.8104936, 34.3668522], [113.8104448, 34.365743], [113.8109726, 34.365759], [113.812073, 34.3657661], [113.8118268, 34.3632982], [113.8121991, 34.363269], [113.8122169, 34.3634371], [113.8135247, 34.3632819], [113.8133911, 34.3626449], [113.8131414, 34.3626935], [113.8127882, 34.3627607], [113.8126408, 34.3627818], [113.8125432, 34.3627958], [113.8124115, 34.3628078], [113.8122787, 34.3628157], [113.8119634, 34.3628309], [113.8116367, 34.3628466], [113.8115483, 34.3628525], [113.8114661, 34.362858], [113.8113638, 34.3628676], [113.811121, 34.3628902], [113.8110575, 34.3624029], [113.8110408, 34.3622736], [113.8109903, 34.3617126], [113.8109953, 34.361666], [113.8108885, 34.3606352], [113.8071869, 34.3608836], [113.807285, 34.3606497], [113.8073142, 34.360452], [113.8073679, 34.3599691], [113.8074892, 34.3589304], [113.8076552, 34.3579498], [113.8076921, 34.3575933], [113.8077174, 34.3574162], [113.807753, 34.3569402], [113.807791, 34.3567354], [113.8078467, 34.3560946], [113.8080869, 34.3547429], [113.8083191, 34.3540208], [113.8061798, 34.3541038], [113.8061872, 34.3535118], [113.8061704, 34.3526663], [113.8061662, 34.3518995], [113.8061663, 34.3518695], [113.8050191, 34.3519469], [113.8045968, 34.3519755], [113.8032311, 34.3520677], [113.8027365, 34.3494238], [113.8025418, 34.3471181], [113.8023993, 34.3454294], [113.8023923, 34.3453464], [113.8028998, 34.3453226], [113.8042641, 34.3452588], [113.806193, 34.3451685], [113.8062003, 34.3443459], [113.8061788, 34.3438419], [113.8061607, 34.3434165], [113.8075518, 34.3433592], [113.8075615, 34.3433592], [113.8075898, 34.3433697], [113.8076099, 34.3433652], [113.8078658, 34.3433581], [113.8079949, 34.3433558], [113.8085212, 34.3433377], [113.8087556, 34.3433328], [113.8088777, 34.3433305], [113.8089433, 34.3433232], [113.8089941, 34.3433087], [113.8090784, 34.3433022], [113.8090478, 34.343055], [113.8090452, 34.3430214], [113.8090365, 34.3428322], [113.8089541, 34.3428336], [113.8057807, 34.3428879], [113.8057795, 34.3430516], [113.8040401, 34.3430801], [113.8040295, 34.3428376], [113.8057816, 34.3428126], [113.8058152, 34.3421933], [113.8063848, 34.3421675], [113.806457, 34.3421477], [113.8065973, 34.3419784], [113.8070755, 34.3419675], [113.8070515, 34.3417012], [113.8066139, 34.3417081], [113.8066233, 34.3416592], [113.8066031, 34.341658], [113.806592, 34.3416682], [113.8065789, 34.3416791], [113.806549, 34.3416972], [113.806515, 34.3416943], [113.8060491, 34.3416535], [113.8058766, 34.3416391], [113.805522, 34.3416103], [113.8054872, 34.3416081], [113.8054549, 34.3411564], [113.8053252, 34.3393406], [113.8047767, 34.3393611], [113.8047445, 34.3390864], [113.8046479, 34.3378196], [113.8078344, 34.3376779], [113.8075876, 34.3348119], [113.8091862, 34.3347322], [113.8091755, 34.3341297], [113.8109243, 34.3339702], [113.8103288, 34.3316092], [113.8103607, 34.3312901], [113.8107405, 34.3312501], [113.8115102, 34.33097], [113.8116702, 34.33047], [113.8137603, 34.3300801], [113.8134604, 34.3295604], [113.8139203, 34.3295202], [113.8136944, 34.3291472], [113.8156206, 34.32884], [113.8157104, 34.32929], [113.8159902, 34.3298303], [113.8162505, 34.3297801], [113.8167704, 34.3307404], [113.8173603, 34.3305202], [113.8170203, 34.3296202], [113.8176103, 34.3294602], [113.8180204, 34.33015], [113.8193304, 34.3292801], [113.8200002, 34.3292599], [113.8202703, 34.3291103], [113.820777, 34.3282595], [113.8208005, 34.3282202], [113.8209979, 34.328675], [113.8217606, 34.3283703], [113.82191, 34.3285501], [113.8228406, 34.3281202], [113.8230503, 34.32861], [113.8236302, 34.3284801], [113.82361, 34.3280099], [113.8248301, 34.32781], [113.8247606, 34.3266401], [113.8251502, 34.32663], [113.8251701, 34.3263402], [113.8275605, 34.3261703], [113.8305102, 34.32619], [113.8306402, 34.32572], [113.8320806, 34.32569], [113.83213, 34.3261703], [113.8330803, 34.3261002], [113.8330201, 34.3256302], [113.8350201, 34.3254702], [113.8354503, 34.3275604], [113.8368004, 34.3270903], [113.8369206, 34.3275303], [113.8375006, 34.3270503], [113.8378803, 34.3277102], [113.8380168, 34.3277066], [113.8394903, 34.32767], [113.8395304, 34.3279003], [113.8401301, 34.3278301], [113.8402201, 34.3273302], [113.8402303, 34.3266904], [113.8400801, 34.3262902], [113.8398902, 34.3260602], [113.8399605, 34.3237801], [113.8396103, 34.3237902], [113.8396204, 34.3230902], [113.8408806, 34.3230301], [113.8433004, 34.3226202], [113.8432503, 34.3255703], [113.8430502, 34.3256901], [113.8431707, 34.3263302], [113.8433903, 34.3263303], [113.8432706, 34.3280201], [113.8436508, 34.3280051], [113.8439705, 34.3260502], [113.8446807, 34.3260902], [113.8443603, 34.3269804], [113.8443801, 34.3277003], [113.8451903, 34.3276903], [113.8451408, 34.3283903], [113.8459906, 34.3284002], [113.8464002, 34.3271003], [113.8525706, 34.3267], [113.8528203, 34.3278901], [113.8551486, 34.327854], [113.8560362, 34.3278411], [113.8560904, 34.3278401], [113.8560802, 34.3282801], [113.8566704, 34.3282602], [113.8567804, 34.32934], [113.85764, 34.3307903], [113.8582904, 34.3306604], [113.8603301, 34.3304902], [113.8609505, 34.3302601], [113.8615005, 34.33016], [113.8624331, 34.3301412], [113.8634901, 34.3301202], [113.8656503, 34.33024], [113.8660205, 34.3307501], [113.8662402, 34.3313701], [113.8681003, 34.3312402], [113.8731284, 34.3311947], [113.8758303, 34.3311699], [113.8758507, 34.32959], [113.8770606, 34.3289801], [113.8776204, 34.3288803], [113.8781102, 34.3289602], [113.8782902, 34.3291602], [113.87875, 34.3291501], [113.8788301, 34.3295202], [113.8794003, 34.3295102], [113.8796404, 34.3304103], [113.8817405, 34.3301903], [113.8819705, 34.3312403], [113.8827763, 34.3315617], [113.8851154, 34.3304494], [113.8854421, 34.3299834], [113.8846996, 34.3278984], [113.8855923, 34.3279023], [113.8872038, 34.3277134], [113.8865114, 34.3255191], [113.8857518, 34.3221446], [113.8870827, 34.3218825], [113.8869328, 34.3204922], [113.8925789, 34.3194046], [113.8917576, 34.3160097], [113.89057, 34.3114702], [113.8894306, 34.30626], [113.8918708, 34.3059601], [113.8913822, 34.3037254], [113.8913004, 34.3033501], [113.8933702, 34.3030602], [113.8928002, 34.3001504], [113.8943303, 34.2999201], [113.8947101, 34.3003503], [113.8948405, 34.3011502], [113.8964605, 34.30106], [113.8959704, 34.2972099], [113.8956003, 34.2972202], [113.8951302, 34.29427], [113.8961703, 34.2942401], [113.89624, 34.2964703], [113.8980019, 34.2963931], [113.8994404, 34.2963302], [113.8992802, 34.2939202], [113.900131, 34.2939398], [113.9018903, 34.29398], [113.9019704, 34.29633], [113.9024063, 34.2963075], [113.9042703, 34.2962102], [113.9044402, 34.2967604], [113.9052605, 34.2968102], [113.9062401, 34.3015401], [113.90796, 34.30156], [113.9082199, 34.30273], [113.909909, 34.3026535], [113.9139401, 34.3024703], [113.9139903, 34.3017901], [113.9148803, 34.3017099], [113.9149803, 34.3025101], [113.9161003, 34.3024803], [113.9161603, 34.30408], [113.91735, 34.30406], [113.9171001, 34.3012202], [113.9174004, 34.3012102], [113.91691, 34.2978302], [113.9186203, 34.2977902], [113.9184503, 34.2950699], [113.9200405, 34.295051], [113.9209306, 34.2950611], [113.9207902, 34.2953703], [113.9198802, 34.2962], [113.9196113, 34.2968811], [113.9196206, 34.2972999], [113.9199405, 34.2983602], [113.9203504, 34.299], [113.9211504, 34.2998101], [113.9233503, 34.3011], [113.9238504, 34.3017402], [113.9241501, 34.3023303], [113.9242802, 34.3044603], [113.92603, 34.3045102], [113.926324, 34.3082405], [113.9263679, 34.3083269], [113.9269104, 34.3082304], [113.9290102, 34.30738], [113.9317202, 34.3060003], [113.9320904, 34.3057501], [113.9323303, 34.3053604], [113.9323473, 34.3049118], [113.9322103, 34.30429], [113.9310203, 34.3014004], [113.9310103, 34.3010601], [113.93117, 34.3008802], [113.9317502, 34.3006601], [113.9342404, 34.3003502], [113.9350003, 34.3003401], [113.9367003, 34.2999802], [113.9378202, 34.2999603], [113.937236, 34.2945079], [113.9369521, 34.2921794], [113.9406005, 34.2919901], [113.9406004, 34.2925503], [113.9407405, 34.2934202], [113.9419504, 34.2970601], [113.9427701, 34.2968204], [113.9438405, 34.2991901], [113.9440903, 34.2990877], [113.9458802, 34.2983799], [113.9489705, 34.2967202], [113.9514403, 34.2959902], [113.9549889, 34.2947501], [113.9547602, 34.2933003], [113.9545601, 34.2930703], [113.9541504, 34.2933502], [113.9536502, 34.2935601], [113.9526904, 34.2937601], [113.9523704, 34.2915902], [113.9533514, 34.2915513], [113.9543799, 34.2915102], [113.9537503, 34.2879202], [113.9589676, 34.2873599], [113.9589676, 34.2867954], [113.9585518, 34.286231], [113.9585963, 34.2858261], [113.9584033, 34.2853475], [113.9580617, 34.2844027], [113.9581805, 34.2836541], [113.958834, 34.2832001], [113.9599626, 34.2827829], [113.9609428, 34.2834946], [113.9615963, 34.2839609], [113.9622943, 34.2843904], [113.9647596, 34.2857156], [113.9655318, 34.285642], [113.9667051, 34.285188], [113.9674922, 34.2843904], [113.9685912, 34.2837155], [113.9691704, 34.282427], [113.9692595, 34.2812245], [113.9694228, 34.2792488], [113.9701357, 34.2778007], [113.9711456, 34.276549], [113.9725119, 34.275874], [113.9728089, 34.276414], [113.9742792, 34.2763772], [113.9756603, 34.279261], [113.9787197, 34.2787702], [113.9783335, 34.2766349], [113.9794474, 34.2765612], [113.9831899, 34.2769662], [113.9846601, 34.2767331], [113.9861898, 34.2760826], [113.9872739, 34.2748677], [113.9871997, 34.2743277], [113.9879719, 34.2736896], [113.9882541, 34.27299], [113.9870066, 34.2717505], [113.9844968, 34.2706091], [113.9840215, 34.2696396], [113.9833829, 34.2685596], [113.9830859, 34.267455], [113.9830562, 34.2651107], [113.9861601, 34.2650862], [113.9862047, 34.2638588], [113.9873631, 34.2638711], [113.9870957, 34.2608394], [113.9880908, 34.2611708], [113.989858, 34.2623491], [113.9899769, 34.2602748], [113.9959982, 34.2609012], [113.9962803, 34.2602015], [113.9965031, 34.2588759], [113.9964289, 34.2579676], [113.9958497, 34.2557949], [113.9957606, 34.2550707], [113.9961912, 34.2539659], [113.9973942, 34.2526402], [113.9988793, 34.2513022], [114.0025327, 34.2495222], [114.0038247, 34.248626], [114.0043594, 34.2478158], [114.0044336, 34.2466005], [114.0040178, 34.2437646], [114.0042109, 34.2430034], [114.0045821, 34.2426351], [114.0067801, 34.2424632], [114.0086217, 34.2431876], [114.0101662, 34.2437523], [114.0123642, 34.2433963], [114.0150671, 34.2422545], [114.0167601, 34.2417635], [114.0190917, 34.242009], [114.0209778, 34.2420704], [114.0226857, 34.2413706], [114.0242897, 34.2404989], [114.0267401, 34.2394308], [114.0301262, 34.2387433], [114.0321459, 34.2385468], [114.0351462, 34.2387565], [114.0352616, 34.2394009], [114.0353607, 34.239932], [114.0354357, 34.240324], [114.0357272, 34.2418454], [114.03601, 34.2433217], [114.0366507, 34.2463129], [114.0366613, 34.246362], [114.0366503, 34.2464687], [114.036463, 34.2463661], [114.036163, 34.2461853], [114.0358873, 34.246056], [114.0356076, 34.2459566], [114.0353599, 34.2459002], [114.0352797, 34.2458913], [114.0347853, 34.2459601], [114.0341274, 34.2460517], [114.0324598, 34.2462692], [114.0313573, 34.246413], [114.0306199, 34.2465146], [114.0295245, 34.2466576], [114.029512, 34.2465959], [114.0294848, 34.2464549], [114.0283803, 34.2466346], [114.0253249, 34.2470139], [114.0245105, 34.2471152], [114.0246111, 34.2476287], [114.0246952, 34.2479976], [114.0247341, 34.2482305], [114.0248011, 34.2485473], [114.0248257, 34.2486533], [114.0248519, 34.2487892], [114.0248703, 34.2488715], [114.024877, 34.2489017], [114.0248989, 34.2490122], [114.0249724, 34.2493889], [114.0250039, 34.2495149], [114.0250414, 34.2496675], [114.0250651, 34.2498064], [114.025093, 34.2499176], [114.0251047, 34.2499922], [114.0251664, 34.2503384], [114.0252752, 34.2508548], [114.0253223, 34.2510617], [114.0253345, 34.251115], [114.0254185, 34.2515309], [114.0255371, 34.2520678], [114.025584, 34.2523321], [114.0256087, 34.252455], [114.0256557, 34.2526435], [114.0257224, 34.2530062], [114.0257669, 34.2532193], [114.0258064, 34.2534283], [114.0258237, 34.253543], [114.025828, 34.2535657], [114.0233769, 34.2537986], [114.0227617, 34.2538571], [114.022188, 34.2538842], [114.0216293, 34.2539632], [114.0216564, 34.2551555], [114.0216819, 34.2567896], [114.0216834, 34.2568528], [114.0217137, 34.2581718], [114.0217193, 34.2584169], [114.0216953, 34.258933], [114.020017, 34.2589418], [114.0200144, 34.2593145], [114.0200169, 34.2597533], [114.0200177, 34.2598803], [114.0200101, 34.2605563], [114.0200084, 34.2607081], [114.0200012, 34.261476], [114.0200019, 34.2615523], [114.0200089, 34.2624336], [114.0200102, 34.2626028], [114.0200028, 34.2629449], [114.0199905, 34.2635043], [114.019988, 34.2642474], [114.0199897, 34.2644747], [114.0199914, 34.2646953], [114.0199936, 34.2649816], [114.0199879, 34.2655656], [114.0228845, 34.2654122], [114.0229726, 34.2660257], [114.0235443, 34.2659558], [114.0236015, 34.2659501], [114.025152, 34.2657954], [114.0257248, 34.2657603], [114.0257505, 34.2657722], [114.026328, 34.2657032], [114.0272621, 34.2656034], [114.0276693, 34.2655876], [114.0279234, 34.2655492], [114.0280001, 34.2655762], [114.0282384, 34.2670705], [114.0284149, 34.2680802], [114.0284326, 34.2681949], [114.0284448, 34.268274], [114.0284969, 34.2687515], [114.0286875, 34.268753], [114.0286969, 34.2688357], [114.0292959, 34.2688276], [114.029315, 34.2689937], [114.0293406, 34.2693121], [114.0293641, 34.2696047], [114.0293896, 34.2699225], [114.029415, 34.269924], [114.029665, 34.2699822], [114.0300026, 34.2700512], [114.0305111, 34.2700802], [114.0307458, 34.2700781], [114.0309276, 34.2700765], [114.0313879, 34.2700655], [114.0316685, 34.2700654], [114.0317737, 34.2701054], [114.0320018, 34.2702619], [114.0321523, 34.2703382], [114.0324359, 34.2703709], [114.0328523, 34.2703454], [114.0332469, 34.2703049], [114.0335011, 34.2702654], [114.0335032, 34.2702853], [114.033533, 34.2705666], [114.0335962, 34.2709588], [114.0336414, 34.2711984], [114.0337047, 34.2717424], [114.0337439, 34.2720843], [114.0337606, 34.2722076], [114.034396, 34.2721888], [114.0350981, 34.2721793], [114.0357127, 34.2721758], [114.0362657, 34.2721727], [114.037061, 34.2721652], [114.037927, 34.272165], [114.0381485, 34.2721649], [114.0389463, 34.2721657], [114.0394158, 34.2721619], [114.0404451, 34.272037], [114.0409161, 34.2720346], [114.0410943, 34.2720562], [114.0411022, 34.2721394], [114.0411783, 34.2729152], [114.041234, 34.273609], [114.041314, 34.2746061], [114.0413768, 34.2748332], [114.0414344, 34.2751064], [114.0415405, 34.2769117], [114.0415759, 34.2782404], [114.0412949, 34.2782489], [114.0408343, 34.2782428], [114.0408375, 34.2783778], [114.0408627, 34.2785002], [114.0408972, 34.2787438], [114.0409196, 34.2789522], [114.0409399, 34.2792142], [114.0410222, 34.2798875], [114.0410674, 34.2801536], [114.0411999, 34.2813542], [114.0413145, 34.2826276], [114.0413541, 34.2831167], [114.0388011, 34.2832685], [114.0388951, 34.2841971], [114.0371751, 34.2843418], [114.0353908, 34.2845199], [114.0355118, 34.2854016], [114.0355412, 34.2856397], [114.0355544, 34.2858047], [114.0356364, 34.2863483], [114.033738, 34.2864321], [114.0323444, 34.2865107], [114.0324254, 34.2876689], [114.0313505, 34.2877828], [114.0313969, 34.2893898], [114.031456, 34.2907541], [114.0313597, 34.2907334], [114.0310136, 34.2907022], [114.0304691, 34.2906945], [114.0297691, 34.2907337], [114.0289975, 34.2907665], [114.0286381, 34.2907817], [114.0287622, 34.2917863], [114.0289151, 34.2931881], [114.0282288, 34.2932739], [114.0262049, 34.2935403], [114.0266793, 34.295483], [114.0270802, 34.2954153], [114.027567, 34.296594], [114.0277528, 34.2971777], [114.0275285, 34.2972341], [114.0277571, 34.2978201], [114.0278506, 34.2982415], [114.0280742, 34.2988795], [114.0283805, 34.2988266], [114.0288, 34.3002923], [114.0292292, 34.3016806], [114.0269891, 34.302027], [114.0272425, 34.3027143], [114.0273658, 34.3031176], [114.0279208, 34.3048613], [114.030754, 34.3043218], [114.0308767, 34.3046478], [114.0315895, 34.3044072], [114.0318437, 34.3052343], [114.0311515, 34.3053781], [114.0312108, 34.3056165], [114.0309595, 34.3056537], [114.0317326, 34.307797], [114.0319482, 34.3077496], [114.0321552, 34.3083829], [114.0322476, 34.308615], [114.0321753, 34.3086313], [114.0294345, 34.309249], [114.0309425, 34.3137721], [114.0299576, 34.3139504], [114.0304593, 34.3155145], [114.0307823, 34.3148766], [114.0308127, 34.314986], [114.0309295, 34.3154062], [114.0315039, 34.3152866], [114.0317989, 34.3152234], [114.0318866, 34.3154826], [114.0320169, 34.3154555], [114.0324505, 34.3153652], [114.032377, 34.3150768], [114.0328594, 34.3150068], [114.0327187, 34.314511], [114.0339371, 34.3142898], [114.0341482, 34.314887], [114.034138, 34.3149704], [114.0340593, 34.3151428], [114.0338312, 34.3152848], [114.0340711, 34.3161462], [114.0339572, 34.3164681], [114.034003, 34.3168752], [114.0341172, 34.3173011], [114.0344068, 34.3181482], [114.0359515, 34.3177962], [114.0356256, 34.3170142], [114.0374659, 34.3165787], [114.0373282, 34.3160536], [114.0376979, 34.3159543], [114.0374787, 34.3154225], [114.0381856, 34.3152709], [114.0386364, 34.3151475], [114.0403671, 34.3146741], [114.0403815, 34.3147026], [114.0404213, 34.3148781], [114.0405496, 34.315144], [114.0406045, 34.315182], [114.0406595, 34.3152579], [114.0407771, 34.315622], [114.0422756, 34.315315], [114.0426174, 34.3165004], [114.0440272, 34.3161623], [114.0445549, 34.3174982], [114.0454005, 34.3173108], [114.046126, 34.317146], [114.0462868, 34.3175675], [114.0476386, 34.3173258], [114.0473712, 34.3162102], [114.0478267, 34.3161267], [114.0474045, 34.3145266], [114.0486752, 34.3143255], [114.0490014, 34.3142826], [114.048741, 34.3130656], [114.0492302, 34.313], [114.0492565, 34.3132434], [114.0507166, 34.3130378], [114.0508377, 34.3134321], [114.0508429, 34.3137589], [114.051075, 34.3152284], [114.0511881, 34.3158887], [114.0541779, 34.315342], [114.054353, 34.3156868], [114.0547422, 34.3169758], [114.0550187, 34.3181747], [114.0573224, 34.3177117], [114.0577104, 34.3176461], [114.0578939, 34.3176238], [114.057928, 34.3178462], [114.0580471, 34.3178171], [114.0581349, 34.3183316], [114.0582772, 34.3191645], [114.058466, 34.3191122], [114.0585507, 34.3200556], [114.058799, 34.3200352], [114.0589018, 34.3210935], [114.0591376, 34.3210724], [114.0593768, 34.3220217], [114.0589174, 34.3220732], [114.0593173, 34.3239531], [114.0595276, 34.3239316], [114.0596833, 34.3244371], [114.0596127, 34.3244518], [114.05933, 34.3245363], [114.0594444, 34.3250222], [114.0596889, 34.326061], [114.0598082, 34.3260536], [114.0600109, 34.3269599], [114.0602036, 34.3278209], [114.0598043, 34.3278961], [114.0596775, 34.327921], [114.0584331, 34.3281655], [114.0579793, 34.3282534], [114.0573116, 34.3283826], [114.0572352, 34.3283974], [114.057357, 34.3287461], [114.0573906, 34.3288401], [114.0574338, 34.3289614], [114.0574435, 34.3289887], [114.0575412, 34.3291851], [114.0576445, 34.3295364], [114.0577171, 34.3298576], [114.057787, 34.3301557], [114.057854, 34.3304284], [114.0579211, 34.3306896], [114.0579797, 34.3309253], [114.0580496, 34.3312234], [114.0580831, 34.3313644], [114.0581697, 34.3317179], [114.0581948, 34.3318104], [114.0582562, 34.3319606], [114.0583344, 34.3321593], [114.0584125, 34.3323511], [114.0584676, 34.3324811], [114.0585046, 34.3325683], [114.0585381, 34.3326399], [114.0586073, 34.3327509], [114.0586636, 34.332841], [114.058684, 34.3328886], [114.0588727, 34.3333268], [114.0588922, 34.3334559], [114.0589359, 34.3335329], [114.0589953, 34.3336471], [114.0593494, 34.3348091], [114.0594339, 34.3350865], [114.0594777, 34.3352722], [114.0599813, 34.3369888], [114.0601892, 34.3375142], [114.0604078, 34.3378176], [114.0605335, 34.3380078], [114.0605393, 34.3380242], [114.0605477, 34.338048], [114.0611207, 34.3396821], [114.0611698, 34.3396746], [114.0619707, 34.3395524], [114.0625059, 34.3394706], [114.0631613, 34.3393706], [114.063876, 34.3392357], [114.0647182, 34.3390768], [114.0647604, 34.339068], [114.0655895, 34.338896], [114.0658912, 34.3399349], [114.0661514, 34.3408566], [114.0667986, 34.3407503], [114.0669686, 34.3413475], [114.067192, 34.3421542], [114.0674402, 34.3431352], [114.0674628, 34.3432247], [114.0676049, 34.3437125], [114.0677402, 34.3441771], [114.0677843, 34.3443289], [114.067844, 34.3445641], [114.0677032, 34.3444837], [114.0667897, 34.3439661], [114.0651809, 34.3430544], [114.063876, 34.3423149], [114.0638761, 34.3460924], [114.0636143, 34.3462218], [114.0634202, 34.3462691], [114.0632078, 34.346321], [114.0622633, 34.3465028], [114.0622209, 34.3461121], [114.0621211, 34.3461614], [114.0620421, 34.346186], [114.061929, 34.3461985], [114.0618907, 34.3462028], [114.0614843, 34.3462477], [114.0611782, 34.346252], [114.0611504, 34.3462536], [114.0611139, 34.3462558], [114.0610446, 34.34626], [114.0609455, 34.3462746], [114.0608493, 34.346323], [114.0607531, 34.3463883], [114.060586, 34.3465103], [114.0605342, 34.3465587], [114.0604281, 34.3466578], [114.0601617, 34.3469036], [114.0600335, 34.3470756], [114.0598704, 34.3473051], [114.0603356, 34.3505965], [114.0595934, 34.3507273], [114.0592161, 34.3507938], [114.0590033, 34.3508264], [114.0583738, 34.3509231], [114.0583724, 34.3509233], [114.0578784, 34.3509992], [114.057574, 34.351052], [114.0575685, 34.351053], [114.057832, 34.3525874], [114.0579944, 34.35357], [114.0580192, 34.3537544], [114.0580786, 34.3539491], [114.0580916, 34.3540796], [114.0580827, 34.3541071], [114.0580782, 34.3541208], [114.0580736, 34.3541352], [114.0580169, 34.3542037], [114.0579318, 34.3542679], [114.0578748, 34.354299], [114.0576718, 34.3544095], [114.0573263, 34.3545978], [114.0573225, 34.3545998], [114.0570881, 34.3546923], [114.0569122, 34.3547386], [114.0568049, 34.3547525], [114.0567536, 34.3547591], [114.0566706, 34.3547689], [114.0567231, 34.3554485], [114.0567751, 34.3555245], [114.0567838, 34.355577], [114.0568844, 34.3561318], [114.0570146, 34.3568496], [114.0571261, 34.3574648], [114.0571412, 34.3577538], [114.0572673, 34.3579198], [114.0575491, 34.3587606], [114.0576124, 34.3589979], [114.0576463, 34.359125], [114.0576315, 34.3591865], [114.0575796, 34.3592542], [114.0576316, 34.3593587], [114.0576984, 34.3594325], [114.0578105, 34.3598152], [114.0580256, 34.3607607], [114.0579981, 34.360796], [114.0579983, 34.3610469], [114.0580039, 34.3611837], [114.0579713, 34.3612966], [114.0579717, 34.3612975], [114.0580952, 34.3615925], [114.0582864, 34.362878], [114.058444, 34.3635361], [114.0586314, 34.3643368], [114.0587087, 34.3647009], [114.0587776, 34.3650891], [114.0588152, 34.3652185], [114.0588507, 34.3654446], [114.0589092, 34.3657189], [114.0589864, 34.3661141], [114.0590386, 34.3664022], [114.0591013, 34.3666662], [114.0591457, 34.3667634], [114.0590489, 34.3668294], [114.0588892, 34.366861], [114.0579389, 34.3669623], [114.0571781, 34.3670961], [114.0554463, 34.3673714], [114.0553175, 34.3667225], [114.0546292, 34.3668271], [114.0546757, 34.3671344], [114.0544118, 34.3671762], [114.0544442, 34.3673749], [114.0545618, 34.3679646], [114.0546032, 34.3681873], [114.0548436, 34.3681592], [114.0549669, 34.3681447], [114.0550178, 34.3683344], [114.0556361, 34.3682598], [114.0557043, 34.3686223], [114.0557048, 34.3693872], [114.055671, 34.3695561], [114.0549389, 34.3696791], [114.0550012, 34.3698506], [114.0556053, 34.3697547], [114.0555768, 34.3698261], [114.0555595, 34.3698981], [114.055577, 34.3700564], [114.0555987, 34.3701175], [114.0556508, 34.3701787], [114.0557116, 34.3702326], [114.0558678, 34.3702721], [114.0560414, 34.3703368], [114.0560978, 34.3703655], [114.0561325, 34.3704339], [114.056189, 34.3705274], [114.0562933, 34.3707324], [114.0563367, 34.3708331], [114.0563888, 34.3708979], [114.0564323, 34.3710237], [114.0564149, 34.3710453], [114.0562241, 34.3710778], [114.0561633, 34.3710958], [114.056146, 34.3711498], [114.0561374, 34.3712181], [114.0561333, 34.371506], [114.0561681, 34.3716427], [114.0562202, 34.3718369], [114.0562333, 34.3718693], [114.0562506, 34.3718801], [114.0563591, 34.3718944], [114.0563938, 34.3719016], [114.0564155, 34.3719303], [114.0564459, 34.3720023], [114.0564677, 34.3720742], [114.056476, 34.3721913], [114.0564715, 34.3722365], [114.0565632, 34.3725021], [114.0566454, 34.3728641], [114.0567083, 34.3728496], [114.0570645, 34.372806], [114.0572601, 34.3728001], [114.057316, 34.3728174], [114.0573335, 34.3728638], [114.0573335, 34.3729217], [114.0572992, 34.3729596], [114.0570697, 34.372996], [114.0567998, 34.3730409], [114.0566665, 34.3730813], [114.0566809, 34.3732318], [114.0567191, 34.3733622], [114.0567785, 34.3733795], [114.0568553, 34.3733795], [114.0570579, 34.3733678], [114.0573298, 34.3733521], [114.0574234, 34.373352], [114.0574792, 34.3734899], [114.057523, 34.3736603], [114.0576027, 34.3739708], [114.0574358, 34.3749957], [114.057414, 34.3751345], [114.0573171, 34.3764283], [114.0576416, 34.3772481], [114.0579339, 34.3779661], [114.0580313, 34.3781214], [114.0570972, 34.3782397], [114.0561638, 34.378377], [114.0561653, 34.3783888], [114.0563679, 34.3801045], [114.0550469, 34.380255], [114.0548627, 34.380276], [114.0550694, 34.3814967], [114.0554212, 34.381392], [114.0555421, 34.3812805], [114.0555514, 34.3812738], [114.0561243, 34.3836614], [114.0575825, 34.3834316], [114.0576127, 34.3838312], [114.0576876, 34.3843474], [114.0577251, 34.3846193], [114.0578016, 34.3848365], [114.0595442, 34.3846392], [114.0598927, 34.3875341], [114.0594927, 34.387571], [114.0597711, 34.3897462], [114.0602242, 34.3896664], [114.0604051, 34.3902883], [114.0607633, 34.3918433], [114.0612421, 34.3917822], [114.0615618, 34.3936076], [114.0608639, 34.3936891], [114.0608409, 34.393439], [114.0601831, 34.3934956], [114.060623, 34.3979805], [114.0590187, 34.398245], [114.058967, 34.3980963], [114.0571531, 34.3983676], [114.0576805, 34.4008826], [114.0559264, 34.4011403], [114.0563036, 34.4027313], [114.0543714, 34.4031514], [114.0548284, 34.4048596], [114.0542119, 34.4049928], [114.0543281, 34.4055517], [114.0519077, 34.405935], [114.052053, 34.4066613], [114.0505702, 34.4068876], [114.0505586, 34.4067546], [114.0489299, 34.4069961], [114.0474975, 34.4071795], [114.0476028, 34.4077159], [114.0472721, 34.4077568], [114.0451701, 34.4080165], [114.0449699, 34.4079513], [114.0445811, 34.4080055], [114.0446145, 34.4083188], [114.0444453, 34.4083774], [114.044602, 34.4090062], [114.0466558, 34.4087079], [114.0469921, 34.4102652], [114.0462852, 34.410421], [114.0463581, 34.4107117], [114.0451325, 34.4108947], [114.0452622, 34.4117714], [114.0446771, 34.4121818], [114.0447552, 34.412628], [114.0444928, 34.4126732], [114.0446616, 34.4143838], [114.0451381, 34.4143272], [114.0447977, 34.4146113], [114.0442165, 34.4148234], [114.0439022, 34.4149092], [114.0435716, 34.4152969], [114.0434973, 34.415493], [114.0435569, 34.4157071], [114.0435308, 34.4159528], [114.0434276, 34.4161286], [114.0436476, 34.4166663], [114.0438539, 34.4186091], [114.0435996, 34.4186129], [114.0436042, 34.4189125], [114.0434611, 34.4189149], [114.0436131, 34.4207347], [114.0437869, 34.4207404], [114.0438, 34.4208614], [114.0449072, 34.4207339], [114.0450878, 34.4218175], [114.0439113, 34.4218916], [114.04415, 34.4233053], [114.0443287, 34.4245251], [114.0466199, 34.4244411], [114.0477843, 34.4244251], [114.0486299, 34.4243818], [114.0486561, 34.4247191], [114.0483055, 34.4255193], [114.0476101, 34.427484], [114.049515, 34.4273115], [114.0505077, 34.4272616], [114.0520422, 34.4272033], [114.0522962, 34.4306268], [114.0523165, 34.4315691], [114.0525519, 34.4315728], [114.0537053, 34.43162], [114.0537937, 34.4316236], [114.0538236, 34.4317967], [114.0538545, 34.4319763], [114.0539086, 34.4322835], [114.0540379, 34.4330178], [114.0540836, 34.4332518], [114.054089, 34.4332794], [114.0539882, 34.4332902], [114.0528392, 34.4334135], [114.0527855, 34.4334193], [114.0517039, 34.4335426], [114.051892, 34.434661], [114.0519147, 34.4347959], [114.0519977, 34.4353592], [114.0520015, 34.4353852], [114.0516025, 34.4354273], [114.052261, 34.4385935], [114.051088, 34.4386184], [114.0491923, 34.4386677], [114.0480716, 34.4387045], [114.0478308, 34.4387373], [114.0480096, 34.4396286], [114.0462236, 34.4397114], [114.0461722, 34.4397142], [114.0464236, 34.4412023], [114.045159, 34.4413549], [114.0440068, 34.4415154], [114.0440458, 34.4419481], [114.0429115, 34.4420809], [114.0428145, 34.4432522], [114.0407537, 34.443216], [114.0407899, 34.4450251], [114.0403604, 34.4450149], [114.0403669, 34.4455564], [114.0394083, 34.4455206], [114.0394117, 34.4466831], [114.0394212, 34.4499401], [114.0396432, 34.4499522], [114.0408642, 34.449952], [114.0433137, 34.4500375], [114.0443375, 34.4500646], [114.0443652, 34.4495785], [114.0458358, 34.4495861], [114.0459503, 34.4495999], [114.0459829, 34.4481795], [114.0463605, 34.4481841], [114.0464071, 34.4472595], [114.0466815, 34.4472596], [114.0466848, 34.4470733], [114.0474151, 34.4470811], [114.0474573, 34.4477735], [114.0484888, 34.4476734], [114.0496352, 34.4474863], [114.0505409, 34.4473713], [114.0504585, 34.4468332], [114.0532651, 34.4465696], [114.0537442, 34.4492092], [114.0541142, 34.4491664], [114.0545487, 34.4491161], [114.0541981, 34.4472031], [114.053946, 34.4456972], [114.0538107, 34.444869], [114.0536829, 34.4440872], [114.0534401, 34.4427861], [114.0557598, 34.4425768], [114.0567778, 34.44235], [114.0565888, 34.441409], [114.0569497, 34.4413164], [114.0572844, 34.4412401], [114.0574747, 34.4410932], [114.057953, 34.4410373], [114.058597, 34.4409621], [114.0586271, 34.4411404], [114.0586911, 34.4412271], [114.0587096, 34.4414496], [114.0587263, 34.4416512], [114.0591684, 34.4416308], [114.0591768, 34.4419167], [114.0592371, 34.4419858], [114.0592479, 34.4421771], [114.0592746, 34.44265], [114.0594878, 34.4426192], [114.0596849, 34.4425321], [114.0597172, 34.4425285], [114.0601711, 34.4424778], [114.060602, 34.4449722], [114.0608989, 34.4449427], [114.0612673, 34.4470237], [114.0613252, 34.4471196], [114.0630005, 34.4469259], [114.0631888, 34.4479529], [114.0634455, 34.4493225], [114.0638774, 34.4492636], [114.0642292, 34.4490265], [114.064996, 34.4489374], [114.065021, 34.4491427], [114.0653779, 34.4491054], [114.0653994, 34.4492416], [114.0666122, 34.449126], [114.0682694, 34.4489594], [114.0685238, 34.4501558], [114.0687508, 34.4511061], [114.0674998, 34.4512333], [114.0677808, 34.4532203], [114.0679107, 34.4538244], [114.0674284, 34.4540455], [114.0676643, 34.4555231], [114.0695079, 34.4554573], [114.0695999, 34.4555524], [114.0696809, 34.4558893], [114.0697322, 34.4563705], [114.0702271, 34.4563362], [114.0712688, 34.4563991], [114.0734988, 34.4564578], [114.07474, 34.456127], [114.0758242, 34.4558719], [114.0778736, 34.4552926], [114.077756, 34.4534251], [114.0777893, 34.4534233], [114.0780906, 34.4534106], [114.0782316, 34.4551943], [114.0802423, 34.4546229], [114.0808422, 34.4543977], [114.0812425, 34.4541225], [114.0818358, 34.4542956], [114.0826873, 34.4539435], [114.0829279, 34.4551091], [114.0838205, 34.455007], [114.0835885, 34.4537072], [114.0855833, 34.4535156], [114.0857383, 34.4549733], [114.0857387, 34.4549771], [114.0858705, 34.4559857], [114.0844737, 34.4561502], [114.0846508, 34.4572124], [114.0849735, 34.4571919], [114.0851045, 34.4579626], [114.0862848, 34.457834], [114.0863775, 34.4583351], [114.0864181, 34.4584688], [114.0865514, 34.4588091], [114.0866253, 34.4598278], [114.0849641, 34.4600145], [114.0849777, 34.4602945], [114.0859254, 34.4602542], [114.0859284, 34.4605424], [114.0852875, 34.4605618], [114.0853025, 34.460752], [114.085311, 34.4619054], [114.0853337, 34.4625369], [114.0853339, 34.4625434], [114.0839007, 34.4626975], [114.0839098, 34.4630603], [114.0839044, 34.4639447], [114.0840391, 34.4639446], [114.0840647, 34.4643002], [114.0840872, 34.4648676], [114.0841177, 34.4656338], [114.0843092, 34.4656336], [114.0843171, 34.4659502], [114.0843736, 34.4669877], [114.0844055, 34.4679308], [114.0844177, 34.4683594], [114.0839657, 34.468384], [114.0842276, 34.469141], [114.083996, 34.469147], [114.0839965, 34.4696604], [114.0838294, 34.4696721], [114.0838511, 34.4704706], [114.0837285, 34.4704707], [114.083807, 34.4721917], [114.0842729, 34.4721621], [114.0842702, 34.4727954], [114.0846161, 34.4727862], [114.0846921, 34.4739554], [114.0847739, 34.4751345], [114.0847809, 34.4753494], [114.0854516, 34.4753632], [114.0853727, 34.4763833], [114.0854122, 34.4772034], [114.0839826, 34.4773035], [114.0840728, 34.4784333], [114.0836423, 34.4784433], [114.0836921, 34.4799933], [114.0831622, 34.4799934], [114.0831723, 34.4802634], [114.0812724, 34.4802733], [114.0810422, 34.4782734], [114.0749623, 34.4785534], [114.0749323, 34.4795334], [114.0736438, 34.4795562], [114.0710023, 34.4796033], [114.0709523, 34.4798834], [114.0674425, 34.4799332], [114.0674025, 34.4804933], [114.0666522, 34.4805034], [114.0665625, 34.4825531], [114.0652026, 34.4827435], [114.0653423, 34.4844634], [114.0649427, 34.4844732], [114.0651819, 34.4875038], [114.0653622, 34.4897933], [114.0646829, 34.4897732], [114.0646724, 34.4900833], [114.0641326, 34.4900734], [114.0641225, 34.4903835], [114.0635025, 34.4903933], [114.0635924, 34.4909533], [114.0627325, 34.4912734], [114.0626423, 34.4909036], [114.0616876, 34.4909596], [114.0616225, 34.4909635], [114.0614823, 34.4901835], [114.0580626, 34.4905234], [114.0582727, 34.4930934], [114.0558227, 34.4932133], [114.0561427, 34.4956733], [114.0553626, 34.4957233], [114.0553324, 34.4955233], [114.0544823, 34.4955634], [114.0540228, 34.4932731], [114.0534125, 34.4932933], [114.0538324, 34.4958533], [114.0518925, 34.4962435], [114.0515029, 34.4963934], [114.0517026, 34.4975835], [114.0529225, 34.4974333], [114.0530425, 34.4978834], [114.0534828, 34.4978633], [114.0537027, 34.4985435], [114.0519321, 34.4991233], [114.0521628, 34.4997634], [114.0514525, 34.4998332], [114.0509024, 34.4982534], [114.0500025, 34.4982268], [114.0498828, 34.4982232], [114.0500498, 34.5000995], [114.0497928, 34.5003134], [114.0494126, 34.5003934], [114.0466403, 34.5007242], [114.0461901, 34.5005143], [114.0454004, 34.4997644], [114.0451726, 34.4996421], [114.0450102, 34.4996143], [114.0455204, 34.5024744], [114.0449103, 34.5026142], [114.0452802, 34.5047543], [114.0450204, 34.5047942], [114.0454002, 34.5078343], [114.0448602, 34.5078943], [114.0448103, 34.5074344], [114.0429103, 34.5075045], [114.0430162, 34.508721], [114.0423504, 34.5087443], [114.0421703, 34.5065544], [114.0425605, 34.5065644], [114.0429402, 34.5071343], [114.0447306, 34.5071143], [114.0447504, 34.5064942], [114.0432704, 34.5065042], [114.0430705, 34.5049641], [114.0398604, 34.5055643], [114.0398901, 34.5065143], [114.0391602, 34.5065543], [114.0390106, 34.5043943], [114.0386503, 34.5043843], [114.0386107, 34.5050842], [114.0379903, 34.5051443], [114.0377203, 34.5043841], [114.0354824, 34.5047335], [114.0354225, 34.5048234], [114.0354424, 34.5060535], [114.0338229, 34.5060737], [114.0337627, 34.5049833], [114.0344024, 34.5048635], [114.0341327, 34.5039235], [114.0324026, 34.5043634], [114.0321825, 34.5033935], [114.0318923, 34.5034233], [114.0320923, 34.5044934], [114.0313125, 34.5046935], [114.0313025, 34.5041833], [114.0306726, 34.5041733], [114.0307027, 34.5046536], [114.0303026, 34.5046636], [114.0303324, 34.5050733], [114.0272928, 34.5054635], [114.0263425, 34.5033635], [114.0247525, 34.5031936], [114.0248127, 34.5040036], [114.0240723, 34.5037534], [114.0242022, 34.5040935], [114.0238015, 34.5043454], [114.0233422, 34.5046334], [114.0230626, 34.5031935], [114.0222325, 34.5027032], [114.0228724, 34.5026835], [114.0228121, 34.5024235], [114.0255522, 34.5022835], [114.0255027, 34.5017735], [114.0223522, 34.5020236], [114.0218224, 34.5000934], [114.0217927, 34.4996134], [114.0240325, 34.4994533], [114.0242724, 34.4998233], [114.0250824, 34.4998134], [114.0251022, 34.4993332], [114.0244426, 34.4993435], [114.0234229, 34.4990433], [114.0221022, 34.4991034], [114.0219626, 34.4988935], [114.0199381, 34.4991871], [114.0201151, 34.4998945], [114.0206305, 34.5024588], [114.0200503, 34.5024989], [114.0197804, 34.5013491], [114.0192702, 34.5013589], [114.0198602, 34.5037793], [114.0195504, 34.5037888], [114.0192205, 34.5025992], [114.0184005, 34.502729], [114.0189081, 34.505058], [114.0182204, 34.5050989], [114.0172902, 34.5008789], [114.0168705, 34.500889], [114.0175804, 34.503389], [114.0173402, 34.503429], [114.0180069, 34.5057388], [114.016403, 34.5051553], [114.0158273, 34.5029614], [114.0150511, 34.5031063], [114.0152422, 34.5038149], [114.0148228, 34.5038283], [114.0145484, 34.5025998], [114.0140807, 34.5026666], [114.0141311, 34.5029206], [114.013238, 34.5026089], [114.0130629, 34.5018182], [114.0127255, 34.5018681], [114.0124807, 34.5018751], [114.0121315, 34.5018366], [114.0127424, 34.5039373], [114.0126858, 34.5039219], [114.0121067, 34.5037273], [114.0119503, 34.5037002], [114.0118622, 34.503685], [114.0116227, 34.5036435], [114.0110036, 34.5034292], [114.009541, 34.5028946], [114.0101132, 34.5047502], [114.0095164, 34.504817], [114.0094035, 34.5043897], [114.007857, 34.50456], [114.0077613, 34.5042052], [114.0054034, 34.5044967], [114.0053183, 34.5042904], [114.0052029, 34.503781], [114.0049763, 34.5029461], [114.0041452, 34.5030412], [114.0040807, 34.5024536], [114.0038065, 34.502467], [114.0040162, 34.5036955], [114.0036453, 34.5037222], [114.0036937, 34.5039759], [114.0033227, 34.504016], [114.0030807, 34.5021865], [114.0013065, 34.5024136], [114.0013388, 34.5026005], [113.9996664, 34.5028408], [113.9986029, 34.5029909], [113.9983647, 34.501421], [113.9975808, 34.5015055], [113.9974547, 34.5000001], [113.9974534, 34.4995482], [113.9974522, 34.499105], [113.9973857, 34.4988822], [113.9957778, 34.4990126], [113.9950439, 34.4990235], [113.9949746, 34.4986184], [113.9944571, 34.4986184], [113.9943657, 34.4976838], [113.9940663, 34.4963993], [113.9938621, 34.4953674], [113.9936512, 34.4948778], [113.9934837, 34.4948933], [113.993371, 34.4947628], [113.9931532, 34.4941192], [113.9923135, 34.4943582], [113.9922517, 34.4940827], [113.9921995, 34.4938495], [113.991901, 34.492736], [113.9914187, 34.4928561], [113.9906288, 34.493053], [113.9905642, 34.4930813], [113.9901229, 34.4931976], [113.9892037, 34.493364], [113.988444, 34.4934937], [113.9882115, 34.4923939], [113.9880492, 34.4915528], [113.9869763, 34.4916991], [113.9846979, 34.4919691], [113.9846123, 34.4919529], [113.9845793, 34.4918048], [113.984203, 34.4918598], [113.9842354, 34.4920292], [113.9824969, 34.4922996], [113.9815261, 34.4924579], [113.981576, 34.492645], [113.980317, 34.4929209], [113.9804838, 34.4935224], [113.9807656, 34.4945726], [113.9809441, 34.4953184], [113.9753894, 34.4961751], [113.9750537, 34.4962297], [113.9734739, 34.4965187], [113.972927, 34.4965962], [113.972236, 34.496694], [113.9725635, 34.4980593], [113.9726082, 34.4982564], [113.9726726, 34.49854], [113.9727719, 34.4990504], [113.9729565, 34.5000001], [113.9730447, 34.5001828], [113.9730969, 34.500291], [113.9740418, 34.5004423], [113.9749331, 34.5004514], [113.9756543, 34.5004268], [113.9760585, 34.5022898], [113.9765117, 34.5022966], [113.9764553, 34.5013986], [113.9767359, 34.5015838], [113.9770057, 34.501711], [113.977968, 34.5021523], [113.9786812, 34.5024726], [113.9791795, 34.5027359], [113.9794029, 34.5028024], [113.9812271, 34.5026074], [113.981281, 34.5026856], [113.9814563, 34.5026856], [113.9817935, 34.5026633], [113.9822521, 34.5026299], [113.9827916, 34.5025295], [113.9832215, 34.5024406], [113.9832233, 34.5024402], [113.9856109, 34.5019865], [113.9856752, 34.5020823], [113.9868999, 34.501847], [113.9882972, 34.5016407], [113.9899338, 34.5014011], [113.9898695, 34.5011561], [113.990372, 34.5010214], [113.9909384, 34.5009209], [113.9905277, 34.4994016], [113.9892919, 34.4995909], [113.9886077, 34.4996347], [113.9882834, 34.4982932], [113.9910736, 34.4976898], [113.9913324, 34.497598], [113.9915131, 34.4974271], [113.9916397, 34.4976784], [113.9919475, 34.4995461], [113.993042, 34.4994556], [113.9935707, 34.4993328], [113.9937731, 34.5011582], [113.9914552, 34.5015869], [113.9916754, 34.5027268], [113.990281, 34.503006], [113.9905334, 34.5044199], [113.9907992, 34.5044145], [113.9912641, 34.5063841], [113.9900945, 34.5065985], [113.990048, 34.5067691], [113.9892323, 34.5068931], [113.9877619, 34.5071256], [113.9885247, 34.5097633], [113.9845849, 34.5103225], [113.9844653, 34.5103225], [113.9841331, 34.5101024], [113.9834153, 34.5101683], [113.9833477, 34.5097427], [113.9829608, 34.5097929], [113.9822855, 34.5098682], [113.9814025, 34.5100043], [113.9819674, 34.5137899], [113.9817252, 34.5138166], [113.9819243, 34.5151046], [113.9819403, 34.5161205], [113.9821216, 34.5169245], [113.9799793, 34.5173036], [113.9800567, 34.5180862], [113.980258, 34.5180478], [113.9805248, 34.5195542], [113.9801607, 34.5196044], [113.9801482, 34.5198428], [113.9799168, 34.5199069], [113.9801953, 34.5213045], [113.9783478, 34.5215986], [113.9784853, 34.5245555], [113.9785474, 34.5251605], [113.9794891, 34.5250954], [113.9795512, 34.5256911], [113.9797039, 34.5257017], [113.979831, 34.5263021], [113.9811545, 34.5262286], [113.9812591, 34.5273781], [113.9814145, 34.5290871], [113.9815607, 34.5306948], [113.9817767, 34.5322537], [113.9819038, 34.5332649], [113.9823238, 34.533265], [113.9824385, 34.5325698], [113.9829603, 34.5325488], [113.9830619, 34.5333283], [113.983291, 34.5333073], [113.9833792, 34.5336943], [113.9837543, 34.533612], [113.9839019, 34.5335917], [113.98406, 34.5351349], [113.9841091, 34.5362233], [113.9818928, 34.5364377], [113.9820483, 34.537348], [113.9829199, 34.5373481], [113.9832723, 34.5392374], [113.9831893, 34.5392374], [113.9832825, 34.5401391], [113.9830023, 34.5401477], [113.9830437, 34.5405856], [113.9821116, 34.5406893], [113.9822737, 34.541904], [113.98243, 34.5425135], [113.9819094, 34.5425722], [113.9819145, 34.5425896], [113.9821169, 34.5432752], [113.9823229, 34.5442083], [113.9834424, 34.5439535], [113.984591, 34.5437096], [113.9852822, 34.5435677], [113.9853974, 34.543933], [113.9858581, 34.5438616], [113.9862349, 34.5454275], [113.9862514, 34.5455695], [113.9865489, 34.5455218], [113.9869902, 34.5473827], [113.9870669, 34.5477063], [113.9866446, 34.5477618], [113.9870673, 34.5496096], [113.9867387, 34.5496417], [113.9869033, 34.5505499], [113.9855593, 34.5507166], [113.9856456, 34.5512885], [113.9829289, 34.5517647], [113.982948, 34.5518282], [113.9827272, 34.5518759], [113.982756, 34.5520983], [113.9856456, 34.5515744], [113.9857057, 34.5523559], [113.9833414, 34.5528291], [113.9829831, 34.5534843], [113.9832451, 34.5546481], [113.9825174, 34.5548442], [113.9825737, 34.5550859], [113.9817284, 34.5553196], [113.9819525, 34.5559505], [113.9810309, 34.5562248], [113.9817369, 34.5585643], [113.9811003, 34.5587054], [113.9814294, 34.5600254], [113.9815842, 34.5605604], [113.982481, 34.5602887], [113.9824721, 34.5612078], [113.9816818, 34.5614708], [113.9832543, 34.5632235], [113.9808632, 34.5636244], [113.9809664, 34.5639738], [113.9809812, 34.5639716], [113.981335, 34.565177], [113.9814448, 34.5651831], [113.9826394, 34.5650054], [113.9828817, 34.5652207], [113.9815028, 34.5654353], [113.9816614, 34.5661247], [113.9807591, 34.5662984], [113.9805369, 34.5652096], [113.9803181, 34.5640917], [113.97998, 34.5641469], [113.9792277, 34.56422], [113.9782713, 34.5643196], [113.978406, 34.5654652], [113.9783054, 34.5654708], [113.978879, 34.5685754], [113.9786456, 34.5686496], [113.9784855, 34.5676903], [113.9784333, 34.5676665], [113.9782929, 34.5676382], [113.9782299, 34.5676482], [113.9779247, 34.5655185], [113.9777843, 34.5645393], [113.9774773, 34.5645814], [113.9775519, 34.5651159], [113.9773276, 34.5651233], [113.9774083, 34.5655671], [113.9777935, 34.5676844], [113.9775192, 34.5677435], [113.9771508, 34.5655786], [113.9769854, 34.5646489], [113.9760948, 34.564771], [113.9768631, 34.5678384], [113.9767641, 34.5678533], [113.9761676, 34.5679623], [113.9760238, 34.5679996], [113.9758823, 34.5672535], [113.9752722, 34.5673127], [113.9754424, 34.5680848], [113.9756398, 34.5680774], [113.9756846, 34.5683817], [113.9747156, 34.5684153], [113.9741951, 34.5684334], [113.9741698, 34.5681289], [113.9741268, 34.5679269], [113.9736386, 34.5680165], [113.9740331, 34.5699922], [113.974507, 34.569935], [113.9743798, 34.5701074], [113.9743455, 34.5702137], [113.9743626, 34.5703837], [113.9744054, 34.5705183], [113.9745937, 34.570738], [113.9745851, 34.5709151], [113.9746279, 34.5709859], [113.9746963, 34.5711843], [113.9747648, 34.5712764], [113.9754191, 34.571304], [113.9757017, 34.5712917], [113.9759798, 34.5713882], [113.9761319, 34.5731475], [113.9761499, 34.573283], [113.9762393, 34.5739567], [113.9766431, 34.5739494], [113.9768311, 34.5757235], [113.9776419, 34.5757015], [113.9776463, 34.5756058], [113.9775877, 34.5752662], [113.9774901, 34.5746921], [113.9774609, 34.5742231], [113.9774899, 34.5739046], [113.9788454, 34.5737282], [113.978824, 34.5738927], [113.9791093, 34.575384], [113.9792026, 34.5758632], [113.9792569, 34.5761419], [113.9793158, 34.576696], [113.9794338, 34.5779428], [113.97968, 34.5779592], [113.9803007, 34.5778289], [113.9809115, 34.5777393], [113.9810099, 34.5783179], [113.9811772, 34.579084], [113.9811984, 34.5791745], [113.9812953, 34.5795892], [113.981374, 34.5799885], [113.9814823, 34.5802086], [113.98164, 34.5802412], [113.9818798, 34.580194], [113.9826744, 34.5800376], [113.9830291, 34.5800214], [113.98322, 34.580028], [113.9838861, 34.5804697], [113.9844203, 34.5809289], [113.9856099, 34.5816678], [113.9857751, 34.5818101], [113.9860828, 34.5820753], [113.9862699, 34.5823117], [113.9865457, 34.5826295], [113.9865882, 34.582782], [113.9872452, 34.5828496], [113.9877981, 34.5830179], [113.9881022, 34.5831105], [113.9884963, 34.5833305], [113.9886145, 34.5834446], [113.9885948, 34.5837706], [113.9886046, 34.5839417], [113.9888804, 34.5840803], [113.9891169, 34.584284], [113.9895939, 34.5846251], [113.9901923, 34.5849401], [113.9906909, 34.5851126], [113.9911805, 34.5851727], [113.9927309, 34.5852928], [113.9939904, 34.5853675], [113.9940172, 34.5861117], [113.9939547, 34.5866277], [113.9938905, 34.5868424], [113.9938257, 34.5872751], [113.9938015, 34.587705], [113.9937346, 34.5879794], [113.9946276, 34.5879743], [113.9946503, 34.5883346], [113.9955807, 34.5883391], [113.9955617, 34.5907436], [113.995369, 34.5907855], [113.9953614, 34.5913731], [113.9952478, 34.5913947], [113.9952422, 34.5913958], [113.994968, 34.5914755], [113.9946844, 34.5915849], [113.9940795, 34.5917413], [113.9939471, 34.5918351], [113.9938998, 34.5920539], [113.993808, 34.5921532], [113.9938069, 34.592154], [113.9918076, 34.5921381], [113.9913318, 34.5934783], [113.9876995, 34.5928991], [113.9874738, 34.5935609], [113.9876625, 34.5965609], [113.9875435, 34.5979275], [113.9876087, 34.6017682], [113.9873314, 34.6024926], [113.9871432, 34.6030718], [113.9868941, 34.6034341], [113.9866091, 34.6041133], [113.986521, 34.6046033], [113.9843165, 34.6044446], [113.9840152, 34.6044513], [113.9839094, 34.6044782], [113.9837791, 34.6045387], [113.9836325, 34.6045993], [113.9835267, 34.6046599], [113.9834208, 34.6046599], [113.9833557, 34.6046666], [113.9832496, 34.6054544], [113.9831926, 34.6055015], [113.9831519, 34.6055217], [113.9830705, 34.6055217], [113.9828979, 34.6055033], [113.9827529, 34.605488], [113.9814351, 34.6054557], [113.981393, 34.6052578], [113.9806776, 34.6053205], [113.9807697, 34.6055659], [113.9793828, 34.6060509], [113.9795492, 34.6064895], [113.9796157, 34.6084841], [113.9806821, 34.6085536], [113.9805093, 34.6099703], [113.9826805, 34.6101539], [113.9826195, 34.6124984], [113.982505, 34.6125033], [113.9825839, 34.615017], [113.9826852, 34.6157557], [113.9781932, 34.6161943], [113.9782187, 34.6164898], [113.9771295, 34.6165318], [113.9772738, 34.6177068], [113.9762272, 34.6177769], [113.976363, 34.6186845], [113.975878, 34.6187758], [113.9758787, 34.6187813], [113.9759544, 34.6193527], [113.9738355, 34.6196759], [113.9737504, 34.6194085], [113.9715582, 34.6198888], [113.9714561, 34.6197376], [113.9713851, 34.6197141], [113.9707321, 34.6199413], [113.9717102, 34.6217773], [113.9718701, 34.621724], [113.9722632, 34.6225103], [113.9718534, 34.6225042], [113.9715965, 34.6219914], [113.9710457, 34.6222267], [113.9712115, 34.6225701], [113.969846, 34.622235], [113.9698392, 34.6221016], [113.9671907, 34.6213411], [113.9660029, 34.6210902], [113.9659916, 34.6211769], [113.9656969, 34.6211547], [113.9643511, 34.6207948], [113.9643574, 34.6214221], [113.9642879, 34.6214234], [113.9642135, 34.6219018], [113.9642199, 34.6221627], [113.9645627, 34.6225515], [113.9645877, 34.6227631], [113.9651992, 34.6229435], [113.9652894, 34.6230829], [113.9653168, 34.6232998], [113.9654462, 34.6241812], [113.9655049, 34.6245583], [113.9622503, 34.6240696], [113.9611678, 34.6238836], [113.9611436, 34.6238946], [113.9610624, 34.6239317], [113.9606148, 34.6238661], [113.9604491, 34.6238418], [113.9596152, 34.6238149], [113.9591227, 34.6238202], [113.9591054, 34.6236878], [113.9585503, 34.6235646], [113.9583827, 34.6223559], [113.9583187, 34.62234], [113.9582685, 34.6222219], [113.9581834, 34.6218287], [113.9580852, 34.6207461], [113.9577164, 34.620785], [113.9572574, 34.6208226], [113.9568181, 34.6208629], [113.9559185, 34.6209351], [113.9555435, 34.6209684], [113.9554085, 34.6209475], [113.9548695, 34.6209473], [113.9547939, 34.6209316], [113.9547089, 34.6208534], [113.9545954, 34.6207595], [113.9545009, 34.6207204], [113.9543212, 34.620736], [113.9540911, 34.6207028], [113.9539714, 34.6206499], [113.9539242, 34.6205482], [113.9539244, 34.6202042], [113.9538866, 34.6201104], [113.9538016, 34.6200791], [113.9532154, 34.6200476], [113.9530641, 34.6200163], [113.9529979, 34.6199303], [113.953017, 34.6197427], [113.9530313, 34.6196365], [113.9530519, 34.6194842], [113.9530644, 34.6193909], [113.9531497, 34.6191642], [113.953216, 34.6188594], [113.9533486, 34.6184842], [113.9534338, 34.6183045], [113.9535663, 34.6181247], [113.9536043, 34.6178042], [113.9536611, 34.617687], [113.9536344, 34.6172524], [113.9533129, 34.6172679], [113.9522, 34.6172442], [113.9516664, 34.6172162], [113.9503046, 34.6171909], [113.9497164, 34.6171935], [113.9492261, 34.6173935], [113.9476693, 34.6183639], [113.9442637, 34.6196487], [113.9442787, 34.6203807], [113.9437408, 34.6203484], [113.9433148, 34.6202979], [113.9430714, 34.6202977], [113.9426454, 34.6202975], [113.9419943, 34.6203098], [113.9374244, 34.6202269], [113.9338829, 34.6228412], [113.9334904, 34.6228446], [113.9335096, 34.6237356], [113.9335248, 34.6244411], [113.9335328, 34.6251613], [113.9335489, 34.6252302], [113.9335372, 34.6255417], [113.9337095, 34.6255404], [113.9338456, 34.6258096], [113.9338638, 34.626123], [113.9338477, 34.6263747], [113.9338221, 34.6268256], [113.9332686, 34.6268062], [113.93278, 34.6267682], [113.9326432, 34.6268094], [113.9322225, 34.6270034], [113.9320091, 34.6270739], [113.9320104, 34.6270708], [113.9319603, 34.6267893], [113.9319517, 34.6266773], [113.9319657, 34.6265352], [113.9319623, 34.6250162], [113.9314989, 34.625019], [113.9315009, 34.6251037], [113.9309457, 34.6251278], [113.9309264, 34.6256799], [113.9303145, 34.6256889], [113.9303148, 34.6252767], [113.929429, 34.62524], [113.9294153, 34.6253115], [113.9293529, 34.6253553], [113.9292561, 34.625399], [113.9291531, 34.6254325], [113.9291187, 34.6256208], [113.9288841, 34.626299], [113.9287935, 34.6264253], [113.9287404, 34.6265465], [113.928731, 34.6266084], [113.9287402, 34.6266883], [113.9287026, 34.626874], [113.9286558, 34.6269823], [113.9286152, 34.6270184], [113.9285557, 34.6271834], [113.9276698, 34.6271184], [113.9276239, 34.6282889], [113.9270791, 34.6282864], [113.9254816, 34.6281454], [113.9252759, 34.6281563], [113.925148, 34.6281588], [113.9247144, 34.628076], [113.9246738, 34.6281121], [113.9245682, 34.6287614], [113.9244385, 34.6295124], [113.9241609, 34.6295139], [113.9240475, 34.6295467], [113.9239889, 34.6301497], [113.9239888, 34.6302938], [113.9234465, 34.6302374], [113.9228788, 34.6301948], [113.9227621, 34.6302017], [113.9226568, 34.6302249], [113.9226191, 34.6302596], [113.9226397, 34.6304967], [113.9226455, 34.6306494], [113.9226274, 34.6310292], [113.9226228, 34.6311647], [113.9225982, 34.6312122], [113.9225903, 34.6313099], [113.9226111, 34.6319048], [113.9226101, 34.6321828], [113.9226112, 34.6325856], [113.9221692, 34.6325853], [113.922186, 34.6327867], [113.9217969, 34.6327808], [113.9213218, 34.6327593], [113.9211568, 34.6327592], [113.9203456, 34.6327478], [113.9202638, 34.6327521], [113.9201925, 34.6327488], [113.9201152, 34.6327634], [113.9201173, 34.6327176], [113.9201153, 34.632657], [113.9200996, 34.6325472], [113.9200706, 34.6324285], [113.9200641, 34.6324015], [113.9200146, 34.6323375], [113.9199592, 34.6322458], [113.9199237, 34.6320689], [113.9198961, 34.6318953], [113.9197581, 34.6312286], [113.9197542, 34.6311319], [113.9197882, 34.6311164], [113.9198119, 34.6311034], [113.9198324, 34.6310616], [113.9198417, 34.6310482], [113.91941, 34.6310454], [113.9192822, 34.6310588], [113.9190712, 34.6310685], [113.9189984, 34.6310586], [113.9189958, 34.6310716], [113.9189312, 34.6310736], [113.9188224, 34.6310692], [113.9188188, 34.6311359], [113.9188028, 34.6313608], [113.9187902, 34.6314349], [113.9187818, 34.6315784], [113.918456, 34.6315664], [113.918505, 34.6321988], [113.9177683, 34.6322393], [113.9178936, 34.6330617], [113.9179245, 34.6333867], [113.917979, 34.6340369], [113.917717, 34.6340367], [113.917731, 34.6341831], [113.9164559, 34.6343227], [113.9164068, 34.6334074], [113.9163333, 34.6334011], [113.9162491, 34.6333675], [113.9161563, 34.6333512], [113.9161178, 34.6325133], [113.9153457, 34.632583], [113.9153876, 34.6331627], [113.9152883, 34.6331605], [113.9148847, 34.6331272], [113.9147614, 34.6331055], [113.9145567, 34.6330817], [113.9143257, 34.6330633], [113.9141414, 34.6330305], [113.91411, 34.633025], [113.914055, 34.6330122], [113.9139846, 34.6330012], [113.9138608, 34.6329882], [113.9136721, 34.6329683], [113.9134675, 34.6329445], [113.9134696, 34.6328649], [113.9134978, 34.6326684], [113.9133979, 34.6326487], [113.9133137, 34.632637], [113.9131616, 34.6326292], [113.9130118, 34.6326291], [113.9130024, 34.6327103], [113.9129415, 34.6327083], [113.9129133, 34.6328457], [113.9129546, 34.6337597], [113.9129379, 34.6346968], [113.9129264, 34.6351492], [113.9129234, 34.6352659], [113.9129042, 34.6353153], [113.9129033, 34.6353176], [113.9128914, 34.6355473], [113.9127663, 34.6355495], [113.9125088, 34.635538], [113.9124232, 34.6355356], [113.912389, 34.6355224], [113.9123575, 34.6355063], [113.9121745, 34.6355138], [113.9120854, 34.6355299], [113.9119851, 34.6355337], [113.9118765, 34.6355359], [113.9118486, 34.6355297], [113.9117911, 34.6355013], [113.9117289, 34.6354467], [113.9116744, 34.6354412], [113.9115952, 34.6354394], [113.9114609, 34.6354411], [113.9112017, 34.6354286], [113.9110721, 34.63549], [113.9108361, 34.6354957], [113.9107405, 34.6355051], [113.9102819, 34.6354826], [113.9100984, 34.6354762], [113.9098289, 34.6354744], [113.9096966, 34.6354701], [113.9097219, 34.6352389], [113.9097182, 34.6349834], [113.9098495, 34.6349889], [113.9098617, 34.6346058], [113.9098695, 34.6345194], [113.9098924, 34.6343434], [113.9095083, 34.6343955], [113.9093217, 34.6344208], [113.9063268, 34.634827], [113.9062754, 34.6346012], [113.9062692, 34.6344447], [113.9060086, 34.6329874], [113.9056695, 34.6330157], [113.9052708, 34.6330768], [113.9050072, 34.6331137], [113.9046939, 34.6331089], [113.904302, 34.633103], [113.9042962, 34.6332257], [113.9040336, 34.6332443], [113.9043105, 34.6350555], [113.9042754, 34.6355524], [113.9040365, 34.6356558], [113.9044064, 34.636666], [113.903944, 34.6366373], [113.9039154, 34.6367222], [113.9033799, 34.636635], [113.902889, 34.6365648], [113.9028968, 34.6364158], [113.9027587, 34.6364094], [113.9026705, 34.6364093], [113.9025286, 34.6363902], [113.9024749, 34.6363901], [113.9024556, 34.636463], [113.9023941, 34.6366279], [113.9022675, 34.6366024], [113.9017804, 34.6365386], [113.9014583, 34.6365098], [113.9011246, 34.6364588], [113.9008185, 34.6364406], [113.9006456, 34.6371766], [113.9005819, 34.6371725], [113.9005598, 34.6371954], [113.9004925, 34.6374736], [113.9004602, 34.6374896], [113.9004254, 34.6376643], [113.9003778, 34.6378302], [113.9002671, 34.637801], [113.9002153, 34.6381208], [113.899086, 34.638077], [113.8988949, 34.6381275], [113.8983691, 34.638131], [113.8980532, 34.6381093], [113.8978994, 34.6381034], [113.8978515, 34.63811], [113.8978311, 34.6381468], [113.8971163, 34.6381462], [113.8971414, 34.6387834], [113.8970256, 34.6387998], [113.897039, 34.6390913], [113.8965231, 34.6391253], [113.8956573, 34.6391702], [113.8956432, 34.6396802], [113.8951906, 34.6397146], [113.8951849, 34.6401222], [113.8951635, 34.6402642], [113.8951713, 34.640391], [113.8951579, 34.6404726], [113.8951772, 34.6406667], [113.8951478, 34.6406788], [113.8945923, 34.6407067], [113.8945458, 34.6407046], [113.8940091, 34.6407156], [113.8934138, 34.6407519], [113.8933917, 34.6407211], [113.893382, 34.6406887], [113.8933799, 34.6404076], [113.8933923, 34.6403004], [113.8933925, 34.6401386], [113.8933019, 34.6401365], [113.8923434, 34.6399516], [113.8923484, 34.6399021], [113.8923398, 34.6398634], [113.8921022, 34.6397228], [113.8920343, 34.6397103], [113.8919476, 34.6396821], [113.8918834, 34.6396664], [113.8917627, 34.6396695], [113.8917248, 34.6397786], [113.891687, 34.639816], [113.8916567, 34.6398783], [113.8916188, 34.6400156], [113.8915846, 34.640212], [113.8915392, 34.6402681], [113.8914751, 34.6402806], [113.8912751, 34.6402773], [113.8912072, 34.6402647], [113.8910227, 34.64025], [113.8909355, 34.6402239], [113.890882, 34.6403601], [113.8906056, 34.6403458], [113.8900312, 34.6402731], [113.8898082, 34.6402589], [113.8897573, 34.6402829], [113.8897087, 34.6403289], [113.8897038, 34.640377], [113.8896917, 34.6404071], [113.8896286, 34.6404451], [113.8895825, 34.6404571], [113.8894735, 34.6404309], [113.8894491, 34.640509], [113.8893787, 34.6405711], [113.889306, 34.6405991], [113.8892188, 34.6405509], [113.8890831, 34.6405167], [113.8888965, 34.6404564], [113.888865, 34.6404023], [113.8888021, 34.6403542], [113.8886979, 34.640322], [113.8884386, 34.6402757], [113.8882689, 34.6402334], [113.8881526, 34.6402093], [113.8880942, 34.6401882], [113.8877888, 34.6401278], [113.8877798, 34.6400932], [113.8876271, 34.640054], [113.8828003, 34.6397159], [113.881608, 34.6395867], [113.8812511, 34.6395139], [113.8803755, 34.6393516], [113.8792372, 34.6392391], [113.8782528, 34.6391874], [113.8782076, 34.6392651], [113.8781732, 34.6393386], [113.8781751, 34.6394154], [113.8781023, 34.6394237], [113.8778986, 34.6394897], [113.8778594, 34.6394475], [113.8778253, 34.6394287], [113.8776613, 34.6393748], [113.8776451, 34.6393466], [113.8776452, 34.6393144], [113.8776241, 34.6392861], [113.8775868, 34.6392418], [113.877504, 34.6391678], [113.8774424, 34.6390979], [113.8773904, 34.6390791], [113.877358, 34.639028], [113.8773337, 34.6390011], [113.8773175, 34.6389648], [113.8772769, 34.6389541], [113.8772443, 34.6389648], [113.8772005, 34.6389634], [113.8771826, 34.6389513], [113.8771404, 34.6389405], [113.8771047, 34.6389217], [113.8770624, 34.6389162], [113.8769227, 34.638908], [113.8767992, 34.6389066], [113.8767359, 34.6389132], [113.8766887, 34.6389132], [113.8766449, 34.6389212], [113.8765847, 34.6389466], [113.8764628, 34.6389855], [113.8763588, 34.638988], [113.8763393, 34.6389827], [113.876317, 34.6389643], [113.8762998, 34.6389213], [113.8762782, 34.6388872], [113.8762435, 34.638855], [113.8762263, 34.6388173], [113.876196, 34.6387833], [113.8761635, 34.63876], [113.8761592, 34.6387385], [113.8761679, 34.6387027], [113.8761528, 34.6386686], [113.8761529, 34.6386167], [113.8761703, 34.6385845], [113.876192, 34.6385809], [113.8761899, 34.6385075], [113.876203, 34.638452], [113.8762009, 34.6383804], [113.8757655, 34.6383746], [113.8757027, 34.6383548], [113.8756464, 34.6383458], [113.8755857, 34.6383457], [113.8755077, 34.638351], [113.875486, 34.6384047], [113.8754556, 34.6384477], [113.8754317, 34.6384924], [113.8750827, 34.6388256], [113.8746214, 34.6387057], [113.8744408, 34.6387007], [113.8736544, 34.6386373], [113.8733923, 34.6385648], [113.8731127, 34.6385067], [113.8727107, 34.6384726], [113.8726118, 34.6383906], [113.8727346, 34.6381258], [113.8730494, 34.638025], [113.87323, 34.6379867], [113.8736032, 34.6377608], [113.873825, 34.6375106], [113.8740061, 34.6371785], [113.8742455, 34.6368464], [113.8744565, 34.6360472], [113.8748429, 34.6347425], [113.8749548, 34.6339721], [113.8749201, 34.6337939], [113.8749905, 34.6334905], [113.8749912, 34.6329945], [113.8747582, 34.6329846], [113.8745603, 34.6328689], [113.8739895, 34.6327864], [113.8737977, 34.6324924], [113.8733725, 34.6324005], [113.8728656, 34.6324577], [113.8722598, 34.6324089], [113.8722111, 34.63177], [113.8717668, 34.6317697], [113.8717362, 34.6327855], [113.8721824, 34.6328579], [113.87235, 34.6331695], [113.8725873, 34.6334429], [113.8724945, 34.6334428], [113.8706401, 34.6331773], [113.8700548, 34.6330808], [113.8699497, 34.6335598], [113.8699494, 34.6337515], [113.8698388, 34.6340101], [113.8695656, 34.6345369], [113.8687021, 34.6343826], [113.8675139, 34.634343], [113.8662041, 34.6342026], [113.8651554, 34.6338756], [113.8645645, 34.6336546], [113.8636157, 34.6337404], [113.8635058, 34.6337443], [113.8632978, 34.6337549], [113.8631831, 34.6337607], [113.8631185, 34.6337735], [113.8629655, 34.6338], [113.8628316, 34.6338206], [113.8627276, 34.6338333], [113.8625137, 34.6338627], [113.8622997, 34.6338911], [113.8621204, 34.6339255], [113.8620104, 34.6339421], [113.861999, 34.6339433], [113.8619231, 34.6339509], [113.8618682, 34.633942], [113.8618482, 34.6339244], [113.8618276, 34.6339064], [113.8618169, 34.6338569], [113.8618147, 34.633771], [113.8617945, 34.6337097], [113.8617598, 34.6336791], [113.8616942, 34.6336355], [113.8616357, 34.6335959], [113.8615581, 34.6335544], [113.8614984, 34.6335069], [113.8614495, 34.6334663], [113.8614196, 34.6334347], [113.8613982, 34.633402], [113.8613803, 34.6333605], [113.861372, 34.6333269], [113.8613613, 34.6332894], [113.861353, 34.6332617], [113.8613375, 34.6332439], [113.8613124, 34.6332251], [113.8612994, 34.6331836], [113.8612994, 34.6331365], [113.8612995, 34.6331135], [113.8612853, 34.6330087], [113.8612648, 34.6328179], [113.8612976, 34.6323586], [113.8614054, 34.6316781], [113.8614156, 34.6316091], [113.8603798, 34.6318164], [113.8589515, 34.6321033], [113.8587018, 34.6312927], [113.8586273, 34.6311592], [113.8581841, 34.6300652], [113.8578496, 34.6301248], [113.8567742, 34.6303628], [113.8559973, 34.6305347], [113.8554598, 34.6306666], [113.8552285, 34.6288605], [113.8499727, 34.6289733], [113.8500253, 34.6284916], [113.8473956, 34.628305], [113.8475235, 34.6268769], [113.846913, 34.6268519], [113.8466387, 34.6270292], [113.8467194, 34.6272419], [113.8466448, 34.6275679], [113.8465533, 34.6282235], [113.8465022, 34.6288448], [113.8459978, 34.6288442], [113.845943, 34.6295027], [113.8459443, 34.6296408], [113.8453968, 34.6296217], [113.8453194, 34.6306277], [113.8453102, 34.6309337], [113.8443193, 34.630871], [113.8441734, 34.6308867], [113.8440732, 34.6309082], [113.8439556, 34.6309152], [113.8438433, 34.6308898], [113.8438319, 34.6298114], [113.8435337, 34.6297797], [113.8431505, 34.629739], [113.8430301, 34.6297114], [113.8427988, 34.6296639], [113.8427025, 34.6296406], [113.8423759, 34.6296042], [113.8422191, 34.6295896], [113.8421103, 34.6295822], [113.8414868, 34.6295755], [113.8413609, 34.6295819], [113.8412664, 34.6302337], [113.8410825, 34.6302136], [113.8406502, 34.6301907], [113.8398, 34.6301117], [113.8396444, 34.6300955], [113.8394037, 34.6300922], [113.8391889, 34.6300796], [113.8385519, 34.6300237], [113.8384524, 34.6299625], [113.8383465, 34.6307098], [113.8380206, 34.6307093], [113.8380865, 34.6315725], [113.8381096, 34.6317557], [113.8366277, 34.6318698], [113.8365714, 34.6319018], [113.8365411, 34.6319618], [113.8365409, 34.6320343], [113.8365883, 34.6330888], [113.8331849, 34.6334264], [113.8331241, 34.632465], [113.8330608, 34.6324643], [113.8328538, 34.6324515], [113.832635, 34.6324512], [113.8298232, 34.6324474], [113.8298198, 34.6323403], [113.8295865, 34.632332], [113.8293809, 34.6323167], [113.8292252, 34.6322989], [113.8291802, 34.6344306], [113.8284975, 34.6344987], [113.8280743, 34.6345274], [113.8280409, 34.6331847], [113.8280162, 34.6321905], [113.8280114, 34.6321898], [113.8276607, 34.6321668], [113.827561, 34.6321517], [113.8275308, 34.6321341], [113.8275127, 34.6321016], [113.82751, 34.6320453], [113.8250843, 34.6319124], [113.8250669, 34.6297561], [113.8251115, 34.6296868], [113.8251414, 34.6295848], [113.8250921, 34.6295112], [113.8250775, 34.629401], [113.825053, 34.6293274], [113.824994, 34.6292253], [113.8249794, 34.6290987], [113.8249802, 34.6287272], [113.8249756, 34.6285843], [113.8249907, 34.6284129], [113.8249994, 34.6283588], [113.8250057, 34.628319], [113.8250454, 34.6282333], [113.8250456, 34.6281312], [113.8250409, 34.6280537], [113.8250219, 34.6279929], [113.8249441, 34.6280356], [113.8248402, 34.6280998], [113.8248031, 34.6281273], [113.8247919, 34.6281609], [113.8247696, 34.6282007], [113.8247177, 34.6282282], [113.8246324, 34.6282679], [113.8245176, 34.6282953], [113.8243953, 34.6283165], [113.8243249, 34.6283256], [113.824236, 34.6283438], [113.8239321, 34.6284108], [113.8238617, 34.6284413], [113.8237653, 34.6284656], [113.8235958, 34.6285121], [113.8235415, 34.6280393], [113.8232852, 34.6280389], [113.8233179, 34.6277477], [113.8212669, 34.6274864], [113.8211917, 34.6275661], [113.8211652, 34.6277434], [113.8211306, 34.6279169], [113.8210132, 34.6281814], [113.8209567, 34.6284418], [113.8208952, 34.6286854], [113.8208644, 34.6288464], [113.8206012, 34.6287896], [113.8207786, 34.6279063], [113.8209585, 34.6270106], [113.8200851, 34.6269389], [113.8201665, 34.6261743], [113.8196128, 34.6261349], [113.819627, 34.6257267], [113.8185293, 34.6257303], [113.8185412, 34.6255738], [113.8199469, 34.6255505], [113.8212557, 34.6255589], [113.8212574, 34.6248645], [113.8205734, 34.6248745], [113.8196758, 34.6248807], [113.8196827, 34.6245802], [113.8191667, 34.624584], [113.8191418, 34.6243337], [113.820214, 34.624302], [113.8202454, 34.6241387], [113.8203382, 34.6235187], [113.8203969, 34.6230727], [113.8204136, 34.6228533], [113.8205565, 34.621906], [113.8206287, 34.6214307], [113.8208092, 34.6205236], [113.820503, 34.6204809], [113.8206078, 34.6199006], [113.8207815, 34.6180825], [113.8209316, 34.6171423], [113.8210261, 34.6168438], [113.8213382, 34.6161148], [113.8218754, 34.6162485], [113.8222994, 34.6162819], [113.8223844, 34.6160239], [113.8224018, 34.6158129], [113.8223941, 34.6154401], [113.8225302, 34.6154333], [113.8228373, 34.615089], [113.8228619, 34.6149759], [113.8225622, 34.6149638], [113.8225066, 34.614936], [113.822518, 34.6148094], [113.8225545, 34.6146896], [113.8225647, 34.6144986], [113.8225205, 34.6143622], [113.821816, 34.6143683], [113.8213289, 34.6141309], [113.8207442, 34.6141137], [113.8207431, 34.6146267], [113.8204939, 34.6158853], [113.8201554, 34.6158994], [113.8191386, 34.615914], [113.8191017, 34.6158919], [113.818266, 34.6159054], [113.8182155, 34.6160057], [113.8182151, 34.6163464], [113.8182048, 34.6170025], [113.8181284, 34.6175608], [113.8181121, 34.6176661], [113.8181245, 34.6177983], [113.8180389, 34.6177904], [113.8180124, 34.6178205], [113.817965, 34.6180776], [113.8179863, 34.6181191], [113.8181582, 34.6181278], [113.818174, 34.618453], [113.8181471, 34.6187158], [113.816076, 34.6186812], [113.8159064, 34.6194776], [113.8179678, 34.6196196], [113.8180533, 34.6197178], [113.8179612, 34.6203723], [113.8179109, 34.6204562], [113.8178065, 34.6205321], [113.8176934, 34.6205629], [113.8159513, 34.6204295], [113.815148, 34.6203159], [113.8152874, 34.6196278], [113.8143123, 34.619496], [113.8142348, 34.6196225], [113.8142237, 34.6204709], [113.8125862, 34.6204358], [113.8126138, 34.6213632], [113.8112185, 34.6214406], [113.8111774, 34.6210634], [113.8090055, 34.6211095], [113.8088988, 34.6211001], [113.8087912, 34.6209953], [113.8084478, 34.6208721], [113.8068764, 34.6209528], [113.8068354, 34.6209134], [113.8068269, 34.6201469], [113.8068051, 34.6198798], [113.8050775, 34.6198637], [113.8049818, 34.6179475], [113.804982, 34.6175727], [113.8028585, 34.6176994], [113.802238, 34.6176331], [113.8013161, 34.6175777], [113.8006669, 34.6175923], [113.800474, 34.6175201], [113.8004391, 34.617361], [113.800755, 34.6172163], [113.802194, 34.6168832], [113.8024396, 34.6169121], [113.8041766, 34.6168249], [113.8049488, 34.6166222], [113.8063178, 34.6161011], [113.8074411, 34.6155656], [113.8079679, 34.6150159], [113.8082141, 34.6144661], [113.8083375, 34.6138297], [113.8083905, 34.6133234], [113.8086889, 34.6131498], [113.8101769, 34.6130388], [113.8101857, 34.6130386], [113.8112275, 34.6130204], [113.8121628, 34.6130041], [113.8133383, 34.612888], [113.8138297, 34.6127287], [113.8140757, 34.6122368], [113.8141642, 34.611369], [113.814147, 34.6108916], [113.8139543, 34.6105735], [113.8136211, 34.6104145], [113.8133054, 34.6103134], [113.8102354, 34.6102131], [113.8097092, 34.6101409], [113.809604, 34.6100397], [113.8096042, 34.6098806], [113.8099376, 34.6097358], [113.8120428, 34.6096773], [113.8140077, 34.6097056], [113.8157267, 34.6099509], [113.8165864, 34.6099506], [113.8170952, 34.6098926], [113.8172357, 34.6096755], [113.8173062, 34.6092705], [113.8175344, 34.6090969], [113.8182363, 34.6089375], [113.8196223, 34.6087634], [113.8201136, 34.6086041], [113.8203244, 34.6083437], [113.8204301, 34.6077217], [113.8205361, 34.6067814], [113.8207116, 34.6066512], [113.8215713, 34.6064628], [113.8221152, 34.6064192], [113.8224837, 34.6063323], [113.8225539, 34.6062165], [113.8225194, 34.6055078], [113.8227477, 34.6050593], [113.8230636, 34.6048856], [113.8261515, 34.6043636], [113.8263374, 34.6043672], [113.8263343, 34.6038073], [113.826278, 34.6030524], [113.8265389, 34.5997825], [113.8268559, 34.5997726], [113.8268928, 34.5995103], [113.826863, 34.5995027], [113.8268608, 34.5993512], [113.8267363, 34.5992993], [113.8267033, 34.5988051], [113.8266772, 34.598232], [113.8267624, 34.5982307], [113.8266716, 34.5974935], [113.8266161, 34.5970695], [113.8261772, 34.59486], [113.8261062, 34.5945028], [113.8260926, 34.5943669], [113.8260752, 34.5941926], [113.82607, 34.5939622], [113.8260286, 34.5921185], [113.8257355, 34.5921252], [113.8257256, 34.5920777], [113.8253593, 34.5920863], [113.8254367, 34.5915203], [113.8251216, 34.5915278], [113.8252182, 34.5912187], [113.8252063, 34.5909248], [113.8251867, 34.5904432], [113.8251299, 34.5904494], [113.8251323, 34.5904274], [113.8250058, 34.5904321], [113.8250061, 34.5903093], [113.8249788, 34.5902762], [113.8242438, 34.5902529], [113.8241645, 34.5891088], [113.8240349, 34.5872399], [113.8236975, 34.5828399], [113.8246088, 34.5828089], [113.8247537, 34.5827508], [113.8248095, 34.5826772], [113.8248951, 34.5819169], [113.8249652, 34.5819114], [113.8249567, 34.5816048], [113.8250454, 34.5816042], [113.8250609, 34.581243], [113.8252241, 34.5806679], [113.8256683, 34.5806273], [113.826402, 34.5805603], [113.8264579, 34.5805122], [113.8263452, 34.5781346], [113.8263109, 34.5778684], [113.8258755, 34.5778851], [113.8258602, 34.5778253], [113.8252331, 34.5778711], [113.825233, 34.577712], [113.8249226, 34.5777337], [113.8247046, 34.5765036], [113.8257266, 34.5764081], [113.8259633, 34.5764036], [113.8259516, 34.5749472], [113.8258812, 34.5749519], [113.82576, 34.5743458], [113.82567, 34.5737673], [113.8256454, 34.5735972], [113.8256281, 34.5735963], [113.8254962, 34.5726971], [113.8253934, 34.5726906], [113.8248185, 34.5727135], [113.8242852, 34.5727992], [113.8242295, 34.5726417], [113.8239686, 34.5726555], [113.8239555, 34.5725877], [113.8236518, 34.572626], [113.8236421, 34.5724328], [113.8254288, 34.5721553], [113.8254104, 34.5719988], [113.825382, 34.5717455], [113.8252458, 34.5709469], [113.8252527, 34.5709355], [113.8251271, 34.5704135], [113.8249991, 34.5704233], [113.8249268, 34.5696479], [113.8252733, 34.5696229], [113.8251716, 34.5686931], [113.8249205, 34.568653], [113.8238635, 34.5687292], [113.8234244, 34.5668479], [113.8233324, 34.5668551], [113.8224975, 34.5638956], [113.8218395, 34.563916], [113.8216347, 34.5639124], [113.8215784, 34.5639076], [113.8215153, 34.563911], [113.8213597, 34.5639302], [113.8212223, 34.5639554], [113.8211457, 34.5639786], [113.8208655, 34.562424], [113.8207501, 34.5625599], [113.8205422, 34.5617713], [113.8202238, 34.5618244], [113.8201501, 34.5615136], [113.8207566, 34.5613939], [113.8202803, 34.5597192], [113.82013, 34.5597463], [113.8195749, 34.557708], [113.82322, 34.5569777], [113.8231997, 34.5568914], [113.81867, 34.5577408], [113.8186004, 34.5574437], [113.8219381, 34.5567422], [113.8219249, 34.5566541], [113.8185748, 34.5573406], [113.8185536, 34.5572766], [113.8197345, 34.5570328], [113.8196955, 34.5569107], [113.8200547, 34.5568296], [113.8200411, 34.5567608], [113.82006, 34.5567553], [113.8200436, 34.5567147], [113.8184706, 34.5570471], [113.8184552, 34.5569994], [113.8229885, 34.5560119], [113.8229268, 34.555767], [113.8224248, 34.5558451], [113.8224134, 34.5557522], [113.8198994, 34.5562982], [113.8183927, 34.5566256], [113.8183671, 34.5564466], [113.8206568, 34.5560005], [113.820635, 34.5559086], [113.8183569, 34.5563552], [113.8182908, 34.5559122], [113.8205424, 34.5555164], [113.8223231, 34.555122], [113.822323, 34.5551209], [113.8221196, 34.554084], [113.8219821, 34.5534544], [113.8215969, 34.5518607], [113.8211354, 34.5502007], [113.8203588, 34.547772], [113.8201366, 34.5471973], [113.8192734, 34.5449519], [113.8189345, 34.5441708], [113.8186265, 34.5434362], [113.8180077, 34.5421086], [113.8178962, 34.5418024], [113.8178604, 34.5416689], [113.8181367, 34.5416689], [113.8171037, 34.5387858], [113.8150359, 34.5386239], [113.8150325, 34.5382102], [113.8149604, 34.5373792], [113.8145333, 34.5360207], [113.8151479, 34.535949], [113.8152823, 34.5378058], [113.8153099, 34.5381875], [113.8165802, 34.5375775], [113.8206421, 34.5369578], [113.8204404, 34.5360604], [113.8197538, 34.5361139], [113.8196333, 34.5349457], [113.8193098, 34.5331036], [113.8189252, 34.533113], [113.8181074, 34.5331648], [113.8175603, 34.5332837], [113.8162032, 34.5328293], [113.8149847, 34.532987], [113.8150234, 34.533383], [113.8144129, 34.5335063], [113.8143081, 34.5324647], [113.8132038, 34.5323971], [113.811973, 34.5322514], [113.8103921, 34.5315637], [113.8102424, 34.5310669], [113.8101381, 34.5302442], [113.8127716, 34.5298266], [113.8126142, 34.5290738], [113.809942, 34.5295074], [113.8099064, 34.5296525], [113.8090857, 34.5298213], [113.8087908, 34.5298707], [113.8085176, 34.528829], [113.8076164, 34.5289741], [113.8075825, 34.5288353], [113.8062918, 34.5287702], [113.8057707, 34.5276989], [113.8074058, 34.5274739], [113.8073601, 34.5272387], [113.8070893, 34.5258422], [113.8066166, 34.5259322], [113.8065363, 34.5255331], [113.8065309, 34.5255061], [113.8065309, 34.5254406], [113.806138, 34.5234683], [113.8060147, 34.5231493], [113.8057608, 34.5232076], [113.8056371, 34.5225996], [113.8055427, 34.5221739], [113.8052503, 34.5222453], [113.8048485, 34.5205154], [113.8044896, 34.5189699], [113.8040549, 34.517098], [113.8042797, 34.5170423], [113.804529, 34.5169639], [113.8046448, 34.5169406], [113.804741, 34.5169212], [113.8051589, 34.5168633], [113.8048815, 34.5154088], [113.8052616, 34.5153523], [113.8049437, 34.5137846], [113.8096112, 34.5131993], [113.8088664, 34.5107507], [113.8088481, 34.5103183], [113.8085214, 34.5092849], [113.8116808, 34.5085226], [113.8112717, 34.5059373], [113.8103356, 34.5056252], [113.8102921, 34.5051243], [113.8102337, 34.5044514], [113.8102016, 34.5040813], [113.8113324, 34.5039185], [113.8112518, 34.5033092], [113.8116545, 34.5032801], [113.8123447, 34.5032302], [113.8123521, 34.5031613], [113.812519, 34.5031307], [113.8124734, 34.5028393], [113.8123791, 34.5022707], [113.8123236, 34.5016064], [113.8121297, 34.5016631], [113.8118584, 34.5017424], [113.8117271, 34.5017753], [113.8116104, 34.5017993], [113.8115826, 34.5018056], [113.8114646, 34.5018323], [113.8112843, 34.501869], [113.8110234, 34.5019221], [113.8110183, 34.5019232], [113.8105981, 34.5020123], [113.8101338, 34.5021108], [113.8096233, 34.5022247], [113.8094458, 34.5022694], [113.8093498, 34.5022936], [113.8092514, 34.5023146], [113.8091639, 34.5023265], [113.8091167, 34.5023337], [113.8090654, 34.5023415], [113.8089524, 34.5023533], [113.8088759, 34.5023653], [113.8088385, 34.5023733], [113.8084671, 34.5015641], [113.8082962, 34.5016742], [113.8081328, 34.5017526], [113.8080052, 34.5017976], [113.8078001, 34.50187], [113.80761, 34.5019213], [113.8074626, 34.5019449], [113.8073666, 34.5019603], [113.8071944, 34.501987], [113.8069954, 34.5020309], [113.8067905, 34.5020798], [113.8064935, 34.5021628], [113.8061045, 34.5022777], [113.8056709, 34.5023999], [113.8047538, 34.5026279], [113.8043508, 34.501047], [113.8041106, 34.5001051], [113.8042016, 34.4989623], [113.8050984, 34.4988213], [113.8048182, 34.4980862], [113.8053429, 34.4978969], [113.8055396, 34.4978013], [113.8057062, 34.4976722], [113.8059695, 34.4974387], [113.8060649, 34.4972514], [113.8061561, 34.4970387], [113.8061872, 34.4969135], [113.8061882, 34.4968705], [113.8061921, 34.4967176], [113.8061925, 34.496559], [113.8061626, 34.4964046], [113.8061239, 34.4962584], [113.8060775, 34.4961625], [113.8060223, 34.496079], [113.8058816, 34.4959118], [113.8057911, 34.4958074], [113.8053315, 34.4954093], [113.8048458, 34.4949923], [113.8046401, 34.4947154], [113.8046492, 34.4947149], [113.805156, 34.4946943], [113.805134, 34.4944291], [113.8053109, 34.4939627], [113.805359, 34.4939597], [113.8049054, 34.4920545], [113.804406, 34.492111], [113.8040986, 34.4911215], [113.8040453, 34.491125], [113.8040325, 34.490933], [113.803652, 34.4909284], [113.8034718, 34.4902798], [113.8034643, 34.4902805], [113.803262, 34.4902983], [113.8010991, 34.4904893], [113.800482, 34.4875242], [113.8010522, 34.4874759], [113.8009891, 34.4869424], [113.8006123, 34.4869582], [113.800485, 34.4859705], [113.8004966, 34.485273], [113.8007246, 34.4852857], [113.8010907, 34.4856022], [113.8013037, 34.4856477], [113.8014954, 34.4863332], [113.802831, 34.486196], [113.8028612, 34.486032], [113.8022974, 34.485432], [113.8020188, 34.4837502], [113.8066617, 34.4834997], [113.8066477, 34.4833785], [113.8075422, 34.483278], [113.8072688, 34.4812315], [113.8074561, 34.4812107], [113.8074228, 34.4806999], [113.8064947, 34.4807749], [113.8061915, 34.478918], [113.8064806, 34.4788733], [113.8060575, 34.476438], [113.8058888, 34.4764524], [113.8059657, 34.4755206], [113.8069219, 34.4754404], [113.8067908, 34.4749358], [113.8079047, 34.4747705], [113.8077997, 34.474557], [113.8061724, 34.4747989], [113.8061259, 34.4746605], [113.8077532, 34.4744186], [113.8077138, 34.4743366], [113.8061204, 34.4745686], [113.806127, 34.4745191], [113.8077124, 34.4742964], [113.8076051, 34.4740614], [113.8070963, 34.4725362], [113.8076854, 34.4724523], [113.8065437, 34.4690358], [113.8074587, 34.4689985], [113.8075301, 34.4692953], [113.8083632, 34.4691505], [113.8083247, 34.468868], [113.8080521, 34.4688894], [113.8080453, 34.4685792], [113.8085913, 34.4685288], [113.8083998, 34.4673052], [113.8080915, 34.4673381], [113.8079885, 34.4659909], [113.8073727, 34.4661604], [113.8077003, 34.4689137], [113.8076155, 34.4689287], [113.8071189, 34.4649545], [113.8067646, 34.4649668], [113.8063002, 34.4649829], [113.8060422, 34.4649918], [113.8059069, 34.4649965], [113.8057102, 34.4650033], [113.8056353, 34.4650059], [113.8045937, 34.4650419], [113.8044192, 34.4652574], [113.8037096, 34.4653104], [113.8029864, 34.4653665], [113.802947, 34.4648855], [113.8027913, 34.4648952], [113.8022564, 34.4649288], [113.8022338, 34.4647313], [113.8020736, 34.46333], [113.8019646, 34.4623771], [113.8018974, 34.4617893], [113.801293, 34.461795], [113.8004183, 34.4618032], [113.8004179, 34.4616767], [113.7996184, 34.4617076], [113.7995753, 34.4617315], [113.7995235, 34.4617457], [113.7994882, 34.4617554], [113.7993903, 34.4617642], [113.7990496, 34.4617577], [113.7983645, 34.4617626], [113.7983323, 34.4617635], [113.7983055, 34.461409], [113.7981593, 34.4594804], [113.7986719, 34.4591419], [113.7986246, 34.4583317], [113.7985875, 34.4576974], [113.7976026, 34.457749], [113.797407, 34.4577592], [113.7970543, 34.4549207], [113.7968155, 34.4549243], [113.7963635, 34.454931], [113.796161, 34.454934], [113.7961347, 34.454638], [113.7954898, 34.4548574], [113.7954451, 34.4529412], [113.7952924, 34.4529349], [113.7952053, 34.4529438], [113.795169, 34.4529648], [113.7951244, 34.4530044], [113.7950745, 34.4530487], [113.7950272, 34.4530787], [113.7949692, 34.4530846], [113.7945169, 34.4530724], [113.7928719, 34.4530811], [113.7928545, 34.4530812], [113.7918423, 34.4530881], [113.7918328, 34.4520527], [113.7919557, 34.4520537], [113.7925957, 34.4510271], [113.792569, 34.4509551], [113.7905398, 34.4509668], [113.7905142, 34.4500609], [113.7901424, 34.4500631], [113.7891105, 34.4500716], [113.7890868, 34.4492297], [113.7885814, 34.4492692], [113.7883021, 34.449291], [113.7881006, 34.4487743], [113.7880889, 34.4480691]]]}}